{"type":"FeatureCollection","features":[{"type":"Feature","properties":{"road":"台18線","start_m":0,"end_m":108500,"source":"data.gov.tw 105020 省道公路路線圖資 (KMZ, 11502) / 校正: data.gov.tw 7040 省道里程坐標(里程牌標誌)","built_at":"2026-09-10T22:44:28+08:00","step_m":100,"crs_note":"WGS84 lon/lat, 6 decimals; mileage_m = 沿線累積里程(公尺, 官方樁號)","mileage_m":[0,100,200,300,400,500,600,700,800,900,1000,1100,1200,1300,1400,1500,1600,1700,1800,1900,2000,2100,2200,2300,2400,2500,2600,2700,2800,2900,3000,3100,3200,3300,3400,3500,3600,3700,3800,3900,4000,4100,4200,4300,4400,4500,4600,4700,4800,4900,5000,5100,5200,5300,5400,5500,5600,5700,5800,5900,6000,6100,6200,6300,6400,6500,6600,6700,6800,6900,7000,7100,7200,7300,7400,7500,7600,7700,7800,7900,8000,8100,8200,8300,8400,8500,8600,8700,8800,8900,9000,9100,9200,9300,9400,9500,9600,9700,9800,9900,10000,10100,10200,10300,10400,10500,10600,10700,10800,10900,11000,11100,11200,11300,11400,11500,11600,11700,11800,11900,12000,12100,12200,12300,12400,12500,12600,12700,12800,12900,13000,13100,13200,13300,13400,13500,13600,13700,13800,13900,14000,14100,14200,14300,14400,14500,14600,14700,14800,14900,15000,15100,15200,15300,15400,15500,15600,15700,15800,15900,16000,16100,16200,16300,16400,16500,16600,16700,16800,16900,17000,17100,17200,17300,17400,17500,17600,17700,17800,17900,18000,18100,18200,18300,18400,18500,18600,18700,18800,18900,19000,19100,19200,19300,19400,19500,19600,19700,19800,19900,20000,20100,20200,20300,20400,20500,20600,20700,20800,20900,21000,21100,21200,21300,21400,21500,21600,21700,21800,21900,22000,22100,22200,22300,22400,22500,22600,22700,22800,22900,23000,23100,23200,23300,23400,23500,23600,23700,23800,23900,24000,24100,24200,24300,24400,24500,24600,24700,24800,24900,25000,25100,25200,25300,25400,25500,25600,25700,25800,25900,26000,26100,26200,26300,26400,26500,26600,26700,26800,26900,27000,27100,27200,27300,27400,27500,27600,27700,27800,27900,28000,28100,28200,28300,28400,28500,28600,28700,28800,28900,29000,29100,29200,29300,29400,29500,29600,29700,29800,29900,30000,30100,30200,30300,30400,30500,30600,30700,30800,30900,31000,31100,31200,31300,31400,31500,31600,31700,31800,31900,32000,32100,32200,32300,32400,32500,32600,32700,32800,32900,33000,33100,33200,33300,33400,33500,33600,33700,33800,33900,34000,34100,34200,34300,34400,34500,34600,34700,34800,34900,35000,35100,35200,35300,35400,35500,35600,35700,35800,35900,36000,36100,36200,36300,36400,36500,36600,36700,36800,36900,37000,37100,37200,37300,37400,37500,37600,37700,37800,37900,38000,38100,38200,38300,38400,38500,38600,38700,38800,38900,39000,39100,39200,39300,39400,39500,39600,39700,39800,39900,40000,40100,40200,40300,40400,40500,40600,40700,40800,40900,41000,41100,41200,41300,41400,41500,41600,41700,41800,41900,42000,42100,42200,42300,42400,42500,42600,42700,42800,42900,43000,43100,43200,43300,43400,43500,43600,43700,43800,43900,44000,44100,44200,44300,44400,44500,44600,44700,44800,44900,45000,45100,45200,45300,45400,45500,45600,45700,45800,45900,46000,46100,46200,46300,46400,46500,46600,46700,46800,46900,47000,47100,47200,47300,47400,47500,47600,47700,47800,47900,48000,48100,48200,48300,48400,48500,48600,48700,48800,48900,49000,49100,49200,49300,49400,49500,49600,49700,49800,49900,50000,50100,50200,50300,50400,50500,50600,50700,50800,50900,51000,51100,51200,51300,51400,51500,51600,51700,51800,51900,52000,52100,52200,52300,52400,52500,52600,52700,52800,52900,53000,53100,53200,53300,53400,53500,53600,53700,53800,53900,54000,54100,54200,54300,54400,54500,54600,54700,54800,54900,55000,55100,55200,55300,55400,55500,55600,55700,55800,55900,56000,56100,56200,56300,56400,56500,56600,56700,56800,56900,57000,57100,57200,57300,57400,57500,57600,57700,57800,57900,58000,58100,58200,58300,58400,58500,58600,58700,58800,58900,59000,59100,59200,59300,59400,59500,59600,59700,59800,59900,60000,60100,60200,60300,60400,60500,60600,60700,60800,60900,61000,61100,61200,61300,61400,61500,61600,61700,61800,61900,62000,62100,62200,62300,62400,62500,62600,62700,62800,62900,63000,63100,63200,63300,63400,63500,63600,63700,63800,63900,64000,64100,64200,64300,64400,64500,64600,64700,64800,64900,65000,65100,65200,65300,65400,65500,65600,65700,65800,65900,66000,66100,66200,66300,66400,66500,66600,66700,66800,66900,67000,67100,67200,67300,67400,67500,67600,67700,67800,67900,68000,68100,68200,68300,68400,68500,68600,68700,68800,68900,69000,69100,69200,69300,69400,69500,69600,69700,69800,69900,70000,70100,70200,70300,70400,70500,70600,70700,70800,70900,71000,71100,71200,71300,71400,71500,71600,71700,71800,71900,72000,72100,72200,72300,72400,72500,72600,72700,72800,72900,73000,73100,73200,73300,73400,73500,73600,73700,73800,73900,74000,74100,74200,74300,74400,74500,74600,74700,74800,74900,75000,75100,75200,75300,75400,75500,75600,75700,75800,75900,76000,76100,76200,76300,76400,76500,76600,76700,76800,76900,77000,77100,77200,77300,77400,77500,77600,77700,77800,77900,78000,78100,78200,78300,78400,78500,78600,78700,78800,78900,79000,79100,79200,79300,79400,79500,79600,79700,79800,79900,80000,80100,80200,80300,80400,80500,80600,80700,80800,80900,81000,81100,81200,81300,81400,81500,81600,81700,81800,81900,82000,82100,82200,82300,82400,82500,82600,82700,82800,82900,83000,83100,83200,83300,83400,83500,83600,83700,83800,83900,84000,84100,84200,84300,84400,84500,84600,84700,84800,84900,85000,85100,85200,85300,85400,85500,85600,85700,85800,85900,86000,86100,86200,86300,86400,86500,86600,86700,86800,86900,87000,87100,87200,87300,87400,87500,87600,87700,87800,87900,88000,88100,88200,88300,88400,88500,88600,88700,88800,88900,89000,89100,89200,89300,89400,89500,89600,89700,89800,89900,90000,90100,90200,90300,90400,90500,90600,90700,90800,90900,91000,91100,91200,91300,91400,91500,91600,91700,91800,91900,92000,92100,92200,92300,92400,92500,92600,92700,92800,92900,93000,93100,93200,93300,93400,93500,93600,93700,93800,93900,94000,94100,94200,94300,94400,94500,94600,94700,94800,94900,95000,95100,95200,95300,95400,95500,95600,95700,95800,95900,96000,96100,96200,96300,96400,96500,96600,96700,96800,96900,97000,97100,97200,97300,97400,97500,97600,97700,97800,97900,98000,98100,98200,98300,98400,98500,98600,98700,98800,98900,99000,99100,99200,99300,99400,99500,99600,99700,99800,99900,100000,100100,100200,100300,100400,100500,100600,100700,100800,100900,101000,101100,101200,101300,101400,101500,101600,101700,101800,101900,102000,102100,102200,102300,102400,102500,102600,102700,102800,102900,103000,103100,103200,103300,103400,103500,103600,103700,103800,103900,104000,104100,104200,104300,104400,104500,104600,104700,104800,104900,105000,105100,105200,105300,105400,105500,105600,105700,105800,105900,106000,106100,106200,106300,106400,106500,106600,106700,106800,106900,107000,107100,107200,107300,107400,107500,107600,107700,107800,107900,108000,108100,108200,108300,108400,108500]},"geometry":{"type":"LineString","coordinates":[[120.318361,23.46593],[120.318372,23.46683],[120.318511,23.467722],[120.318851,23.468565],[120.319409,23.469304],[120.320148,23.469892],[120.321024,23.470288],[120.321975,23.470499],[120.322942,23.470636],[120.323909,23.470774],[120.324875,23.470918],[120.325827,23.471123],[120.326753,23.471415],[120.32764,23.471796],[120.328508,23.472213],[120.329375,23.472632],[120.33024,23.473053],[120.331107,23.473473],[120.331973,23.473893],[120.332839,23.474314],[120.333707,23.474731],[120.334574,23.475149],[120.33544,23.47557],[120.336306,23.47599],[120.337172,23.47641],[120.338038,23.476831],[120.338904,23.477252],[120.339774,23.477665],[120.340641,23.478085],[120.341507,23.478506],[120.342373,23.478926],[120.343238,23.479347],[120.344105,23.479767],[120.344973,23.480184],[120.34584,23.480602],[120.346708,23.48102],[120.347575,23.481438],[120.34844,23.481861],[120.349323,23.48225],[120.35024,23.482562],[120.351185,23.482795],[120.352152,23.482935],[120.353128,23.482983],[120.354107,23.48298],[120.355086,23.482978],[120.356064,23.482978],[120.357043,23.482979],[120.358022,23.482975],[120.359001,23.482974],[120.359979,23.482976],[120.360958,23.482977],[120.361937,23.482973],[120.362916,23.482968],[120.363894,23.482965],[120.364873,23.482964],[120.365852,23.482965],[120.366831,23.482962],[120.367809,23.48296],[120.368788,23.482957],[120.369766,23.482983],[120.370741,23.483065],[120.371702,23.483231],[120.372648,23.483463],[120.373578,23.483743],[120.374509,23.484024],[120.375441,23.4843],[120.376373,23.484574],[120.377302,23.484858],[120.378233,23.485138],[120.379163,23.485418],[120.380094,23.485697],[120.381025,23.485977],[120.381954,23.486259],[120.382884,23.486541],[120.383816,23.486818],[120.384747,23.487095],[120.385677,23.487377],[120.386609,23.487654],[120.387541,23.487929],[120.388472,23.488208],[120.389403,23.488485],[120.390335,23.488761],[120.391266,23.489041],[120.392208,23.489283],[120.393173,23.489432],[120.394151,23.489462],[120.395114,23.48938],[120.396073,23.4892],[120.397009,23.48894],[120.397938,23.488656],[120.398868,23.488374],[120.399798,23.488095],[120.40073,23.48782],[120.40166,23.487539],[120.402589,23.487257],[120.403519,23.486975],[120.404449,23.486695],[120.405379,23.486415],[120.406309,23.486133],[120.407239,23.485852],[120.408168,23.485571],[120.409099,23.485291],[120.410029,23.485011],[120.410958,23.484729],[120.411887,23.484444],[120.412818,23.484167],[120.413746,23.483882],[120.414677,23.483604],[120.415607,23.483324],[120.416537,23.483043],[120.417466,23.48276],[120.418399,23.482488],[120.419334,23.482221],[120.42027,23.481959],[120.420692,23.481483],[120.420192,23.480708],[120.419887,23.479854],[120.419842,23.478955],[120.42003,23.478071],[120.420261,23.477194],[120.420486,23.476315],[120.420715,23.475438],[120.420939,23.474559],[120.421172,23.473683],[120.421397,23.472805],[120.421625,23.471927],[120.421855,23.47105],[120.42208,23.470172],[120.422446,23.46934],[120.423088,23.468665],[120.423837,23.468085],[120.424589,23.467507],[120.425341,23.46693],[120.426093,23.466353],[120.426844,23.465775],[120.427596,23.465197],[120.428349,23.464622],[120.429099,23.464042],[120.429851,23.463465],[120.4306,23.462884],[120.431353,23.462308],[120.432104,23.46173],[120.432897,23.461209],[120.433851,23.461057],[120.434825,23.461139],[120.4358,23.461219],[120.436774,23.4613],[120.437748,23.461387],[120.438722,23.46147],[120.439696,23.461551],[120.44067,23.461632],[120.441644,23.461716],[120.442618,23.4618],[120.443593,23.461877],[120.444567,23.461959],[120.445542,23.46204],[120.446516,23.462122],[120.44749,23.462204],[120.448419,23.462457],[120.449197,23.463002],[120.44996,23.463568],[120.45073,23.464124],[120.451578,23.464573],[120.452436,23.465007],[120.453291,23.465445],[120.454145,23.465886],[120.454706,23.465805],[120.454934,23.464929],[120.45534,23.464109],[120.455796,23.463311],[120.456259,23.462516],[120.456729,23.461725],[120.457163,23.460916],[120.457489,23.460065],[120.457807,23.459212],[120.458124,23.458358],[120.458442,23.457504],[120.458757,23.45665],[120.459075,23.455797],[120.459395,23.454944],[120.459708,23.454099],[120.460024,23.453246],[120.460345,23.452395],[120.460868,23.451801],[120.461839,23.4517],[120.46281,23.451602],[120.46378,23.451503],[120.464751,23.451406],[120.465722,23.451307],[120.466694,23.451223],[120.46767,23.451212],[120.468642,23.451291],[120.469615,23.451377],[120.470587,23.45146],[120.471559,23.451546],[120.472531,23.451633],[120.473504,23.451714],[120.474477,23.451794],[120.475453,23.451794],[120.476425,23.451709],[120.477394,23.451597],[120.478363,23.451485],[120.479332,23.451375],[120.480301,23.451266],[120.48127,23.451148],[120.482239,23.451037],[120.483207,23.450921],[120.484174,23.450792],[120.485137,23.45064],[120.486096,23.450474],[120.487052,23.450287],[120.487985,23.450023],[120.488898,23.449703],[120.48972,23.449232],[120.490454,23.448637],[120.491229,23.448091],[120.492028,23.447573],[120.492776,23.446995],[120.493545,23.446441],[120.49438,23.445974],[120.495262,23.445596],[120.496205,23.445361],[120.497151,23.445137],[120.498119,23.445107],[120.499088,23.445219],[120.500057,23.445329],[120.501024,23.445328],[120.501973,23.445114],[120.50292,23.444893],[120.503867,23.444673],[120.504813,23.444451],[120.505763,23.44424],[120.506714,23.444037],[120.507662,23.443824],[120.508612,23.443613],[120.509562,23.443403],[120.510512,23.443195],[120.511461,23.442984],[120.512413,23.442782],[120.513362,23.442571],[120.514312,23.442363],[120.515279,23.442244],[120.516255,23.442211],[120.517231,23.442178],[120.518207,23.44215],[120.519183,23.442124],[120.520159,23.442086],[120.521134,23.442041],[120.52211,23.441995],[120.523084,23.441939],[120.524059,23.441884],[120.525034,23.441829],[120.526009,23.441775],[120.526984,23.44172],[120.527958,23.441666],[120.528933,23.441612],[120.529908,23.441567],[120.530882,23.441507],[120.531837,23.44132],[120.5328,23.441171],[120.53377,23.441073],[120.534717,23.441288],[120.535654,23.441543],[120.536565,23.441866],[120.537475,23.442194],[120.538382,23.442527],[120.539232,23.442964],[120.540108,23.443336],[120.541082,23.4434],[120.542032,23.443578],[120.542902,23.443986],[120.543769,23.444401],[120.544514,23.444971],[120.54509,23.445699],[120.545742,23.44636],[120.546513,23.446914],[120.547275,23.447478],[120.547918,23.448154],[120.54855,23.44884],[120.549175,23.449534],[120.549797,23.450228],[120.550418,23.450923],[120.551039,23.451618],[120.551683,23.452295],[120.552524,23.452731],[120.553491,23.452851],[120.554464,23.452929],[120.555436,23.453015],[120.556409,23.453099],[120.557382,23.45308],[120.558347,23.452942],[120.559314,23.452816],[120.560285,23.452721],[120.561259,23.452647],[120.562233,23.452589],[120.563208,23.452533],[120.564177,23.45243],[120.565114,23.452179],[120.566033,23.451873],[120.566951,23.451566],[120.567869,23.451258],[120.568787,23.45095],[120.569702,23.450636],[120.570619,23.450325],[120.571535,23.450013],[120.572453,23.449706],[120.573369,23.449395],[120.574287,23.449086],[120.575204,23.448777],[120.576122,23.448468],[120.577039,23.448158],[120.577956,23.44785],[120.578874,23.447541],[120.579785,23.447217],[120.580679,23.446855],[120.581601,23.446557],[120.582528,23.446275],[120.583469,23.446035],[120.584419,23.445827],[120.585371,23.445623],[120.58631,23.445379],[120.587231,23.445077],[120.588147,23.444765],[120.589064,23.444455],[120.589978,23.444139],[120.590891,23.443819],[120.5918,23.443491],[120.592714,23.443172],[120.593625,23.442846],[120.594504,23.442456],[120.595398,23.442094],[120.59632,23.441798],[120.597271,23.441593],[120.598232,23.441436],[120.599191,23.441267],[120.600097,23.440975],[120.600834,23.4404],[120.601447,23.439717],[120.60225,23.439228],[120.603193,23.439007],[120.604156,23.439142],[120.605106,23.439025],[120.606027,23.438726],[120.606945,23.43842],[120.606881,23.437657],[120.606283,23.437014],[120.606992,23.437404],[120.607552,23.438141],[120.608239,23.43863],[120.609107,23.438244],[120.610077,23.438178],[120.610159,23.437407],[120.610201,23.436523],[120.610993,23.436045],[120.611706,23.435538],[120.611435,23.434691],[120.61106,23.433859],[120.611531,23.433156],[120.612315,23.432619],[120.613083,23.432106],[120.612858,23.431313],[120.612383,23.430604],[120.612108,23.429974],[120.612983,23.429821],[120.613731,23.430393],[120.614165,23.431186],[120.615017,23.431468],[120.615984,23.431557],[120.61692,23.4318],[120.617856,23.431958],[120.618801,23.432063],[120.619701,23.432294],[120.620656,23.432258],[120.621543,23.432629],[120.622493,23.432812],[120.623449,23.432944],[120.623047,23.433192],[120.622131,23.433468],[120.621237,23.433259],[120.620272,23.433198],[120.619308,23.433323],[120.618667,23.433933],[120.617937,23.434465],[120.617259,23.433859],[120.616404,23.433488],[120.615476,23.433432],[120.615132,23.434262],[120.61425,23.4343],[120.614232,23.435143],[120.614143,23.436037],[120.614351,23.436904],[120.614576,23.437777],[120.615379,23.437601],[120.616265,23.437327],[120.617099,23.436885],[120.617963,23.436483],[120.618816,23.436045],[120.619421,23.435365],[120.620203,23.434942],[120.62102,23.435421],[120.621937,23.435633],[120.622897,23.435581],[120.623518,23.436248],[120.624414,23.436421],[120.625095,23.436917],[120.626019,23.437011],[120.626688,23.436359],[120.627492,23.435938],[120.628451,23.436083],[120.629325,23.435709],[120.629426,23.434849],[120.630225,23.434435],[120.631004,23.433946],[120.631862,23.434259],[120.632729,23.433913],[120.633472,23.434345],[120.634258,23.434641],[120.635118,23.434773],[120.635825,23.435388],[120.636775,23.435246],[120.63775,23.435267],[120.638708,23.435164],[120.639426,23.434706],[120.640389,23.434852],[120.640837,23.434244],[120.640042,23.433747],[120.639287,23.433186],[120.638388,23.432884],[120.638612,23.432558],[120.639498,23.432858],[120.640269,23.433329],[120.641183,23.433644],[120.642121,23.433893],[120.642305,23.4336],[120.641384,23.433389],[120.640706,23.432818],[120.640697,23.432524],[120.641591,23.432862],[120.642482,23.432637],[120.64342,23.432494],[120.64364,23.432038],[120.642689,23.432221],[120.641744,23.432272],[120.640944,23.43179],[120.641336,23.431573],[120.642186,23.431759],[120.641571,23.431113],[120.641561,23.430217],[120.641495,23.429319],[120.641298,23.428453],[120.64186,23.427821],[120.642469,23.427275],[120.64229,23.426408],[120.642439,23.425533],[120.642923,23.425429],[120.643093,23.42631],[120.643637,23.426453],[120.643411,23.425662],[120.643219,23.424862],[120.643055,23.424006],[120.643077,23.423105],[120.643336,23.422249],[120.643203,23.421371],[120.642562,23.420692],[120.642073,23.419961],[120.642891,23.419761],[120.643607,23.420368],[120.643975,23.42006],[120.64354,23.419269],[120.643153,23.418512],[120.642277,23.418798],[120.64225,23.418447],[120.643069,23.417978],[120.643641,23.417262],[120.644126,23.416558],[120.644842,23.417029],[120.645019,23.417915],[120.645567,23.417986],[120.645579,23.41709],[120.645288,23.416234],[120.644901,23.415407],[120.644919,23.414578],[120.645506,23.413874],[120.64623,23.413296],[120.646835,23.412629],[120.646237,23.411968],[120.646614,23.411431],[120.647552,23.411455],[120.648446,23.411207],[120.649058,23.41051],[120.64954,23.40973],[120.649697,23.408845],[120.649639,23.407951],[120.649367,23.407121],[120.648842,23.406368],[120.64842,23.405645],[120.649071,23.406142],[120.649866,23.406609],[120.650821,23.406657],[120.65175,23.406503],[120.652514,23.405954],[120.653332,23.40551],[120.654211,23.405122],[120.655024,23.405078],[120.654817,23.405935],[120.654365,23.406724],[120.654734,23.407534],[120.654783,23.408404],[120.654443,23.408578],[120.654152,23.407826],[120.653347,23.40739],[120.652975,23.407423],[120.653507,23.408177],[120.653969,23.408971],[120.654575,23.409617],[120.655533,23.409606],[120.656485,23.409664],[120.656166,23.410441],[120.655369,23.410768],[120.65441,23.410695],[120.653671,23.411273],[120.653023,23.411938],[120.652504,23.412692],[120.651967,23.41344],[120.651398,23.414165],[120.650908,23.414937],[120.650461,23.415738],[120.650328,23.416606],[120.650831,23.417371],[120.651595,23.417908],[120.651982,23.418716],[120.652825,23.419166],[120.653747,23.419444],[120.654648,23.419754],[120.655521,23.420136],[120.656327,23.420645],[120.657213,23.420955],[120.658182,23.420901],[120.659062,23.421229],[120.659911,23.421651],[120.659954,23.422421],[120.659112,23.422572],[120.658266,23.422821],[120.658402,23.423711],[120.65839,23.424611],[120.657961,23.425399],[120.658052,23.426284],[120.657662,23.427109],[120.658227,23.427647],[120.658978,23.428055],[120.659504,23.42881],[120.660217,23.429423],[120.660923,23.430045],[120.661728,23.430293],[120.662509,23.430207],[120.662832,23.431038],[120.663629,23.43144],[120.664468,23.431899],[120.664468,23.43264],[120.663699,23.433194],[120.6632,23.433924],[120.663197,23.434825],[120.663285,23.435701],[120.663697,23.436517],[120.664229,23.437272],[120.66483,23.437981],[120.665519,23.43861],[120.666279,23.43917],[120.667165,23.439511],[120.668102,23.439737],[120.669028,23.440011],[120.669926,23.440328],[120.670534,23.441006],[120.67073,23.441886],[120.671301,23.442604],[120.672162,23.443021],[120.672888,23.443623],[120.673636,23.44416],[120.673643,23.445044],[120.673996,23.445845],[120.67488,23.446089],[120.675825,23.44626],[120.676776,23.446434],[120.67755,23.446922],[120.677326,23.447771],[120.67712,23.44862],[120.676523,23.449331],[120.676253,23.450189],[120.676545,23.451037],[120.676423,23.451914],[120.677073,23.45257],[120.677934,23.452943],[120.678883,23.453151],[120.679705,23.453556],[120.680368,23.454214],[120.681092,23.454816],[120.681965,23.455105],[120.682666,23.455728],[120.683562,23.456043],[120.684455,23.4564],[120.685048,23.457082],[120.68487,23.457963],[120.684742,23.45884],[120.68494,23.459666],[120.685022,23.460437],[120.685799,23.460773],[120.686761,23.460799],[120.687729,23.460913],[120.688344,23.461465],[120.688925,23.462172],[120.689234,23.463024],[120.689351,23.463908],[120.689235,23.46479],[120.689991,23.465242],[120.690809,23.465666],[120.691464,23.466334],[120.692242,23.466863],[120.69314,23.466882],[120.694032,23.466666],[120.694822,23.466955],[120.695686,23.466791],[120.696312,23.467482],[120.696879,23.468212],[120.696715,23.469035],[120.696219,23.469805],[120.695775,23.470598],[120.695718,23.471451],[120.696363,23.472122],[120.696946,23.472843],[120.697768,23.473313],[120.698473,23.472793],[120.699402,23.472538],[120.700357,23.472698],[120.701326,23.472628],[120.702284,23.472453],[120.703236,23.47228],[120.704105,23.471871],[120.705027,23.471573],[120.705993,23.471504],[120.706914,23.471235],[120.707884,23.471132],[120.708671,23.470666],[120.709442,23.47012],[120.710233,23.470168],[120.710025,23.471025],[120.710283,23.471893],[120.71077,23.472617],[120.710725,23.473508],[120.711193,23.474253],[120.71191,23.474862],[120.712218,23.475712],[120.71262,23.476434],[120.713431,23.476911],[120.714008,23.477632],[120.714455,23.478433],[120.714974,23.479194],[120.715541,23.478659],[120.716213,23.478031],[120.717168,23.477845],[120.718051,23.477476],[120.718862,23.476979],[120.719154,23.476128],[120.719526,23.475301],[120.719144,23.474507],[120.718714,23.473704],[120.718539,23.472844],[120.718256,23.471992],[120.718564,23.471164],[120.718525,23.470279],[120.718818,23.469453],[120.718377,23.468716],[120.718359,23.467822],[120.718104,23.466954],[120.717829,23.466135],[120.718383,23.46541],[120.718649,23.464547],[120.718573,23.463664],[120.71932,23.463104],[120.720153,23.462827],[120.72108,23.462645],[120.721777,23.463196],[120.722444,23.463783],[120.72257,23.463012],[120.722404,23.462125],[120.722104,23.46129],[120.722683,23.460578],[120.722905,23.459735],[120.723514,23.45989],[120.723741,23.460762],[120.724355,23.461447],[120.725201,23.461891],[120.726136,23.462143],[120.72654,23.462911],[120.727445,23.463172],[120.728041,23.463624],[120.728135,23.464438],[120.728522,23.465261],[120.729342,23.465657],[120.729974,23.466344],[120.730314,23.467148],[120.730359,23.468045],[120.730561,23.468917],[120.730271,23.469775],[120.730254,23.470672],[120.730346,23.471569],[120.730565,23.472443],[120.731304,23.472871],[120.732251,23.472667],[120.733171,23.472363],[120.734113,23.472391],[120.734935,23.472615],[120.734638,23.473466],[120.734492,23.474291],[120.733744,23.47487],[120.733571,23.475647],[120.734469,23.475831],[120.735228,23.476396],[120.735485,23.477123],[120.735049,23.477927],[120.735585,23.478491],[120.736399,23.478937],[120.736161,23.479801],[120.735748,23.480605],[120.735138,23.481181],[120.735527,23.481902],[120.73643,23.481924],[120.737282,23.482348],[120.738175,23.482668],[120.73905,23.482567],[120.739874,23.483007],[120.740721,23.483373],[120.741385,23.482756],[120.742041,23.482092],[120.742623,23.481371],[120.74322,23.48078],[120.743845,23.480109],[120.744749,23.479909],[120.745715,23.479803],[120.746633,23.479686],[120.746588,23.480548],[120.746634,23.481437],[120.74676,23.482245],[120.74664,23.483129],[120.746403,23.484001],[120.745834,23.484719],[120.745701,23.485535],[120.745834,23.486401],[120.74639,23.487129],[120.746937,23.487664],[120.74764,23.488134],[120.748409,23.488547],[120.749196,23.488165],[120.748843,23.487382],[120.749466,23.486786],[120.750189,23.486371],[120.750695,23.485728],[120.751601,23.486051],[120.752364,23.486561],[120.752292,23.487403],[120.752521,23.488187],[120.753147,23.488841],[120.753015,23.48971],[120.75333,23.490562],[120.75398,23.491214],[120.754522,23.491943],[120.75529,23.492236],[120.755992,23.49161],[120.756818,23.491699],[120.75773,23.491933],[120.758267,23.491606],[120.758357,23.490731],[120.75866,23.489892],[120.758422,23.489034],[120.759098,23.488514],[120.75987,23.487994],[120.760606,23.488255],[120.760804,23.489137],[120.761396,23.489792],[120.76236,23.489851],[120.763202,23.490238],[120.764164,23.490262],[120.765139,23.490291],[120.765845,23.489725],[120.766559,23.490185],[120.76713,23.490886],[120.768031,23.491223],[120.76892,23.491446],[120.769704,23.490934],[120.770634,23.490657],[120.771539,23.49034],[120.772407,23.490734],[120.773259,23.491153],[120.77418,23.491053],[120.774815,23.490561],[120.775735,23.490518],[120.776707,23.490433],[120.77767,23.490304],[120.778481,23.489809],[120.779089,23.489132],[120.779885,23.489008],[120.780719,23.489382],[120.78144,23.489934],[120.782381,23.490003],[120.782204,23.490828],[120.782301,23.491713],[120.781773,23.49246],[120.780927,23.492893],[120.780181,23.493455],[120.779517,23.493999],[120.77954,23.494861],[120.778944,23.495573],[120.779036,23.496412],[120.778687,23.497159],[120.77832,23.497955],[120.778908,23.498579],[120.779879,23.498549],[120.780663,23.498669],[120.780919,23.49782],[120.781837,23.497671],[120.782685,23.497224],[120.783473,23.496699],[120.784434,23.496587],[120.785231,23.497077],[120.786196,23.49704],[120.787105,23.497128],[120.787839,23.49734],[120.788697,23.49691],[120.789612,23.496743],[120.790543,23.497012],[120.791505,23.497162],[120.791799,23.496519],[120.792359,23.496005],[120.792718,23.495365],[120.792859,23.494502],[120.792816,23.493647],[120.792443,23.492814],[120.791688,23.492269],[120.791376,23.491549],[120.792299,23.491674],[120.792754,23.492444],[120.793317,23.49318],[120.794,23.493804],[120.793929,23.494684],[120.794622,23.495286],[120.79504,23.49609],[120.795004,23.496981],[120.794586,23.497754],[120.79516,23.498452],[120.794927,23.499298],[120.794267,23.499932],[120.793459,23.500427],[120.793998,23.500623],[120.79477,23.500139],[120.795532,23.499615],[120.796291,23.499064],[120.796218,23.498194],[120.79672,23.497422],[120.797288,23.49675],[120.79746,23.495917],[120.797927,23.495566],[120.797819,23.496447],[120.797763,23.497343],[120.797464,23.498193],[120.79747,23.49906],[120.797382,23.499911],[120.797141,23.500768],[120.796488,23.501436],[120.795703,23.501968],[120.794744,23.502059],[120.793866,23.502444],[120.793191,23.503068],[120.792947,23.503929],[120.792861,23.50479],[120.793348,23.505567],[120.794113,23.506126],[120.794997,23.506442],[120.795929,23.506664],[120.796805,23.506848],[120.797717,23.507024],[120.798604,23.507384],[120.799581,23.50738],[120.80041,23.507836],[120.801255,23.507947],[120.800991,23.507234],[120.800035,23.507121],[120.799102,23.506854],[120.798167,23.506603],[120.797752,23.505834],[120.797497,23.504984],[120.797166,23.504173],[120.797193,23.503288],[120.798024,23.502905],[120.798943,23.502615],[120.799722,23.502095],[120.800442,23.501494],[120.801112,23.50085],[120.801532,23.500103],[120.802318,23.500549],[120.803281,23.500487],[120.803593,23.501007],[120.803313,23.501855],[120.803708,23.502651],[120.804281,23.503367],[120.80522,23.503608],[120.806183,23.503482],[120.807147,23.503606],[120.808066,23.503825],[120.809,23.504038],[120.809936,23.503923],[120.810647,23.503365],[120.811379,23.502838],[120.812195,23.502445],[120.812766,23.501763],[120.813595,23.502136],[120.814375,23.502648],[120.815181,23.503137],[120.815809,23.503767],[120.816523,23.504329],[120.816819,23.505185],[120.816291,23.505908],[120.816688,23.506709],[120.817537,23.506904],[120.818256,23.506823],[120.81872,23.506047],[120.819488,23.505517],[120.81983,23.504699],[120.820784,23.504543],[120.821364,23.503876],[120.821897,23.503156],[120.821623,23.502444],[120.820754,23.502037],[120.820396,23.501337],[120.819989,23.500591],[120.819428,23.499887],[120.819354,23.499024],[120.818608,23.498449],[120.818507,23.497646],[120.819087,23.496946],[120.819788,23.49634],[120.820472,23.49573],[120.820292,23.494862],[120.820429,23.49405],[120.819694,23.49347],[120.819327,23.492793],[120.819242,23.491962],[120.819084,23.491194],[120.818931,23.490342],[120.819522,23.489652],[120.820213,23.489015],[120.82101,23.488505],[120.821807,23.487989],[120.822537,23.487435],[120.823023,23.486713],[120.823717,23.4861],[120.824611,23.485806],[120.825523,23.485724],[120.826366,23.485363],[120.827296,23.485218],[120.828261,23.485281],[120.829074,23.485644],[120.829728,23.484976],[120.830298,23.484273],[120.830338,23.483373],[120.830908,23.482792],[120.831859,23.482761],[120.832643,23.482373],[120.832688,23.481602],[120.832908,23.48078],[120.833059,23.47997],[120.833615,23.479232],[120.834251,23.478566],[120.834574,23.477728],[120.835118,23.477214],[120.835918,23.477724],[120.836778,23.478094],[120.837416,23.477449],[120.83782,23.476698],[120.837883,23.475807],[120.837979,23.474913],[120.838199,23.47404],[120.839061,23.473648],[120.839925,23.47397],[120.840813,23.474217],[120.841623,23.474349],[120.842536,23.474062],[120.843466,23.473837],[120.8443,23.473375],[120.845247,23.473191],[120.846052,23.473592],[120.846655,23.47429],[120.847497,23.474194],[120.848015,23.473475],[120.848956,23.473308],[120.849663,23.473801],[120.850351,23.474421],[120.8509,23.475153],[120.85106,23.476007],[120.851816,23.476429],[120.852073,23.477211],[120.85219,23.47809],[120.852632,23.47888],[120.852875,23.479704],[120.852563,23.480526],[120.853192,23.481193],[120.852944,23.482015],[120.852865,23.482904],[120.852238,23.483579],[120.852431,23.484432],[120.852544,23.485324],[120.852462,23.486216],[120.853258,23.486513],[120.85412,23.486129],[120.8542,23.485264],[120.854031,23.484422],[120.854449,23.483608],[120.8549,23.482811],[120.854895,23.481921],[120.855504,23.481302],[120.856461,23.48118],[120.856519,23.480442],[120.856317,23.47964],[120.856803,23.478863],[120.857595,23.478393],[120.857972,23.477851],[120.857616,23.477022],[120.85818,23.476433],[120.858535,23.4756],[120.85909,23.47498],[120.85998,23.475297],[120.860787,23.475739],[120.861722,23.475562],[120.86265,23.475798],[120.863445,23.476275],[120.864391,23.476053],[120.865268,23.475697],[120.865639,23.476482],[120.86566,23.47733],[120.866435,23.477777],[120.86662,23.478657],[120.866943,23.479418],[120.867316,23.480169],[120.86758,23.481015],[120.867941,23.481834],[120.86857,23.482172],[120.869251,23.481529],[120.869413,23.480649],[120.869911,23.479896],[120.870397,23.479163],[120.870291,23.478275],[120.870262,23.477376],[120.870585,23.476531],[120.870937,23.475693],[120.871463,23.474944],[120.872189,23.474532],[120.873019,23.475003],[120.873904,23.475344],[120.874709,23.474914],[120.875285,23.474197],[120.875823,23.473453],[120.876708,23.473693],[120.877557,23.474023],[120.87825,23.474473],[120.879111,23.47475],[120.878953,23.475635],[120.879087,23.476519],[120.87926,23.47733],[120.878953,23.478004],[120.8791,23.478794],[120.880065,23.478826],[120.881031,23.478924],[120.881935,23.478937],[120.882849,23.479143],[120.883816,23.479084],[120.884692,23.479349],[120.885191,23.48004],[120.885711,23.480789],[120.885634,23.48167],[120.885913,23.482519],[120.886246,23.483362],[120.886825,23.484058],[120.88682,23.484943],[120.886505,23.485756],[120.88715,23.486228],[120.888069,23.486291],[120.888889,23.486773],[120.889776,23.48715]]}}]}