{"type":"FeatureCollection","features":[{"type":"Feature","properties":{"road":"台21線","start_m":0,"end_m":145035,"source":"data.gov.tw 105020 省道公路路線圖資 (KMZ, 11502) / 校正: data.gov.tw 7040 省道里程坐標(里程牌標誌)","built_at":"2026-09-10T23:35:00+08:00","step_m":100,"crs_note":"WGS84 lon/lat, 6 decimals; mileage_m = 沿線累積里程(公尺, 官方樁號)","mileage_m":[0,100,200,300,400,500,600,700,800,900,1000,1100,1200,1300,1400,1500,1600,1700,1800,1900,2000,2100,2200,2300,2400,2500,2600,2700,2800,2900,3000,3100,3200,3300,3400,3500,3600,3700,3800,3900,4000,4100,4200,4300,4400,4500,4600,4700,4800,4900,5000,5100,5200,5300,5400,5500,5600,5700,5800,5900,6000,6100,6200,6300,6400,6500,6600,6700,6800,6900,7000,7100,7200,7300,7400,7500,7600,7700,7800,7900,8000,8100,8200,8300,8400,8500,8600,8700,8800,8900,9000,9100,9200,9300,9400,9500,9600,9700,9800,9900,10000,10100,10200,10300,10400,10500,10600,10700,10800,10900,11000,11100,11200,11300,11400,11500,11600,11700,11800,11900,12000,12100,12200,12300,12400,12500,12600,12700,12800,12900,13000,13100,13200,13300,13400,13500,13600,13700,13800,13900,14000,14100,14200,14300,14400,14500,14600,14700,14800,14900,15000,15100,15200,15300,15400,15500,15600,15700,15800,15900,16000,16100,16200,16300,16400,16500,16600,16700,16800,16900,17000,17100,17200,17300,17400,17500,17600,17700,17800,17900,18000,18100,18200,18300,18400,18500,18600,18700,18800,18900,19000,19100,19200,19300,19400,19500,19600,19700,19800,19900,20000,20100,20200,20300,20400,20500,20600,20700,20800,20900,21000,21100,21200,21300,21400,21500,21600,21700,21800,21900,22000,22100,22200,22300,22400,22500,22600,22700,22800,22900,23000,23100,23200,23300,23400,23500,23600,23700,23800,23900,24000,24100,24200,24300,24400,24500,24600,24700,24800,24900,25000,25100,25200,25300,25400,25500,25600,25700,25800,25900,26000,26100,26200,26300,26400,26500,26600,26700,26800,26900,27000,27100,27200,27300,27400,27500,27600,27700,27800,27900,28000,28100,28200,28300,28400,28500,28600,28700,28800,28900,29000,29100,29200,29300,29400,29500,29600,29700,29800,29900,30000,30100,30200,30300,30400,30500,30600,30700,30800,30900,31000,31100,31200,31300,31400,31500,31600,31700,31800,31900,32000,32100,32200,32300,32400,32500,32600,32700,32800,32900,33000,33100,33200,33300,33400,33500,33600,33700,33800,33900,34000,34100,34200,34300,34400,34500,34600,34700,34800,34900,35000,35100,35200,35300,35400,35500,35600,35700,35800,35900,36000,36100,36200,36300,36400,36500,36600,36700,36800,36900,37000,37100,37200,37300,37400,37500,37600,37700,37800,37900,38000,38100,38200,38300,38400,38500,38600,38700,38800,38900,39000,39100,39200,39300,39400,39500,39600,39700,39800,39900,40000,40100,40200,40300,40400,40500,40600,40700,40800,40900,41000,41100,41200,41300,41400,41500,41600,41700,41800,41900,42000,42100,42200,42300,42400,42500,42600,42700,42800,42900,43000,43100,43200,43300,43400,43500,43600,43700,43800,43900,44000,44100,44200,44300,44400,44500,44600,44700,44800,44900,45000,45100,45200,45300,45400,45500,45600,45700,45800,45900,46000,46100,46200,46300,46400,46500,46600,46700,46800,46900,47000,47100,47200,47300,47400,47500,47600,47700,47800,47900,48000,48100,48200,48300,48400,48500,48600,48700,48800,48900,49000,49100,49200,49300,49400,49500,49600,49700,49800,49900,50000,50100,50200,50300,50400,50500,50600,50700,50800,50900,51000,51100,51200,51300,51400,51500,51600,51700,51800,51900,52000,52100,52200,52300,52400,52500,52600,52700,52800,52900,53000,53100,53200,53300,53400,53500,53600,53700,53800,53900,54000,54100,54200,54300,54400,54500,54600,54700,54800,54900,55000,55100,55200,55300,55400,55500,55600,55700,55800,55900,56000,56100,56200,56300,56400,56500,56600,56700,56800,56900,57000,57100,57200,57300,57400,57500,57600,57700,57800,57900,58000,58100,58200,58300,58400,58500,58600,58700,58800,58900,59000,59100,59200,59300,59400,59500,59600,59700,59800,59900,60000,60100,60200,60300,60400,60500,60600,60700,60800,60900,61000,61100,61200,61300,61400,61500,61600,61700,61800,61900,62000,62100,62200,62300,62400,62500,62600,62700,62800,62900,63000,63100,63200,63300,63400,63500,63600,63700,63800,63900,64000,64100,64200,64300,64400,64500,64600,64700,64800,64900,65000,65100,65200,65300,65400,65500,65600,65700,65800,65900,66000,66100,66200,66300,66400,66500,66600,66700,66800,66900,67000,67100,67200,67300,67400,67500,67600,67700,67800,67900,68000,68100,68200,68300,68400,68500,68600,68700,68800,68900,69000,69100,69200,69300,69400,69500,69600,69700,69800,69900,70000,70100,70200,70300,70400,70500,70600,70700,70800,70900,71000,71100,71200,71300,71400,71500,71600,71700,71800,71900,72000,72100,72200,72300,72400,72500,72600,72700,72800,72900,73000,73100,73200,73300,73400,73500,73600,73700,73800,73900,74000,74100,74200,74300,74400,74500,74600,74700,74800,74900,75000,75100,75200,75300,75400,75500,75600,75700,75800,75900,76000,76100,76200,76300,76400,76500,76600,76700,76800,76900,77000,77100,77200,77300,77400,77500,77600,77700,77800,77900,78000,78100,78200,78300,78400,78500,78600,78700,78800,78900,79000,79100,79200,79300,79400,79500,79600,79700,79800,79900,80000,80100,80200,80300,80400,80500,80600,80700,80800,80900,81000,81100,81200,81300,81400,81500,81600,81700,81800,81900,82000,82100,82200,82300,82400,82500,82600,82700,82800,82900,83000,83100,83200,83300,83400,83500,83600,83700,83800,83900,84000,84100,84200,84300,84400,84500,84600,84700,84800,84900,85000,85100,85200,85300,85400,85500,85600,85700,85800,85900,86000,86100,86200,86300,86400,86500,86600,86700,86800,86900,87000,87100,87200,87300,87400,87500,87600,87700,87800,87900,88000,88100,88200,88300,88400,88500,88600,88700,88800,88900,89000,89100,89200,89300,89400,89500,89600,89700,89800,89900,90000,90100,90200,90300,90400,90500,90600,90700,90800,90900,91000,91100,91200,91300,91400,91500,91600,91700,91800,91900,92000,92100,92200,92300,92400,92500,92600,92700,92800,92900,93000,93100,93200,93300,93400,93500,93600,93700,93800,93900,94000,94100,94200,94300,94400,94500,94600,94700,94800,94900,95000,95100,95200,95300,95400,95500,95600,95700,95800,95900,96000,96100,96200,96300,96400,96500,96600,96700,96800,96900,97000,97100,97200,97300,97400,97500,97600,97700,97800,97900,98000,98100,98200,98300,98400,98500,98600,98700,98800,98900,99000,99100,99200,99300,99400,99500,99600,99700,99800,99900,100000,100100,100200,100300,100400,100500,100600,100700,100800,100900,101000,101100,101200,101300,101400,101500,101600,101700,101800,101900,102000,102100,102200,102300,102400,102500,102600,102700,102800,102900,103000,103100,103200,103300,103400,103500,103600,103700,103800,103900,104000,104100,104200,104300,104400,104500,104600,104700,104800,104900,105000,105100,105200,105300,105400,105500,105600,105700,105800,105900,106000,106100,106200,106300,106400,106500,106600,106700,106800,106900,107000,107100,107200,107300,107400,107500,107600,107700,107800,107900,108000,108100,108200,108300,108400,108500,108600,108700,108800,108900,109000,109100,109200,109300,109400,109500,109600,109700,109800,109900,110000,110100,110200,110300,110400,110500,110600,110700,110800,110900,111000,111100,111200,111300,111400,111500,111600,111700,111800,111900,112000,112100,112200,112300,112400,112500,112600,112700,112800,112900,113000,113100,113200,113300,113400,113500,113600,113700,113800,113900,114000,114100,114200,114300,114400,114500,114600,114700,114800,114900,115000,115100,115200,115300,115400,115500,115600,115700,115800,115900,116000,116100,116200,116300,116400,116500,116600,116700,116800,116900,117000,117100,117200,117300,117400,117500,117600,117700,117800,117900,118000,118100,118200,118300,118400,118500,118600,118700,118800,118900,119000,119100,119200,119300,119400,119500,119600,119700,119800,119900,120000,120100,120200,120300,120400,120500,120600,120700,120800,120900,121000,121100,121200,121300,121400,121500,121600,121700,121800,121900,122000,122100,122200,122300,122400,122500,122600,122700,122800,122900,123000,123100,123200,123300,123400,123500,123600,123700,123800,123900,124000,124100,124200,124300,124400,124500,124600,124700,124800,124900,125000,125100,125200,125300,125400,125500,125600,125700,125800,125900,126000,126100,126200,126300,126400,126500,126600,126700,126800,126900,127000,127100,127200,127300,127400,127500,127600,127700,127800,127900,128000,128100,128200,128300,128400,128500,128600,128700,128800,128900,129000,129100,129200,129300,129400,129500,129600,129700,129800,129900,130000,130100,130200,130300,130400,130500,130600,130700,130800,130900,131000,131100,131200,131300,131400,131500,131600,131700,131800,131900,132000,132100,132200,132300,132400,132500,132600,132700,132800,132900,133000,133100,133200,133300,133400,133500,133600,133700,133800,133900,134000,134100,134200,134300,134400,134500,134600,134700,134800,134900,135000,135100,135200,135300,135400,135500,135600,135700,135800,135900,136000,136100,136200,136300,136400,136500,136600,136700,136800,136900,137000,137100,137200,137300,137400,137500,137600,137700,137800,137900,138000,138100,138200,138300,138400,138500,138600,138700,138800,138900,139000,139100,139200,139300,139400,139500,139600,139700,139800,139900,140000,140100,140200,140300,140400,140500,140600,140700,140800,140900,141000,141100,141200,141300,141400,141500,141600,141700,141800,141900,142000,142100,142200,142300,142400,142500,142600,142700,142800,142900,143000,143100,143200,143300,143400,143500,143600,143700,143800,143900,144000,144100,144200,144300,144400,144500,144600,144700,144800,144900,145000,145035],"terminus_note":"末頂點為官方終點樁號 145K+035（SPEC §9c 規則 2 重指派），與前一頂點間距 35 m"},"geometry":{"type":"LineString","coordinates":[[120.860332,24.160882],[120.861274,24.160639],[120.862199,24.160359],[120.862654,24.159617],[120.863338,24.159052],[120.864277,24.158804],[120.865202,24.158527],[120.866084,24.158668],[120.866988,24.159011],[120.867913,24.158931],[120.868834,24.158898],[120.869324,24.158311],[120.869734,24.157545],[120.870584,24.157293],[120.871436,24.156934],[120.871537,24.156066],[120.872258,24.155516],[120.871796,24.154966],[120.871066,24.154413],[120.870299,24.153887],[120.869808,24.153247],[120.870034,24.152376],[120.869775,24.151516],[120.8697,24.150655],[120.869243,24.149897],[120.869305,24.149041],[120.869896,24.148353],[120.869891,24.147498],[120.869371,24.14684],[120.869435,24.146002],[120.868558,24.145627],[120.868542,24.144797],[120.869116,24.144242],[120.869808,24.144839],[120.870512,24.145233],[120.871084,24.14593],[120.871363,24.146739],[120.871965,24.147375],[120.871895,24.148228],[120.87172,24.149013],[120.871606,24.149766],[120.872397,24.14997],[120.873103,24.15048],[120.872453,24.151045],[120.872757,24.151531],[120.87367,24.151715],[120.873431,24.152551],[120.873737,24.153074],[120.874548,24.153417],[120.875207,24.153944],[120.875933,24.154522],[120.875627,24.155345],[120.876009,24.155571],[120.876438,24.154773],[120.876912,24.154026],[120.877428,24.153267],[120.877471,24.152442],[120.877186,24.151584],[120.876875,24.150747],[120.877154,24.149893],[120.877657,24.149132],[120.877858,24.148423],[120.877301,24.147693],[120.876823,24.146912],[120.876305,24.146179],[120.876094,24.145369],[120.876006,24.144491],[120.875803,24.143733],[120.875622,24.143056],[120.875518,24.14222],[120.875265,24.141532],[120.875952,24.140958],[120.875986,24.140142],[120.876435,24.139427],[120.875809,24.138802],[120.875582,24.138107],[120.876162,24.137414],[120.876288,24.136636],[120.876112,24.135838],[120.875183,24.135838],[120.874424,24.135272],[120.874154,24.134477],[120.87491,24.133958],[120.874892,24.133084],[120.875634,24.132579],[120.876281,24.131912],[120.875772,24.131167],[120.875171,24.130473],[120.87502,24.129593],[120.874314,24.129508],[120.873512,24.129915],[120.874079,24.129425],[120.874566,24.128753],[120.875406,24.128691],[120.875567,24.129561],[120.875934,24.130376],[120.876869,24.130589],[120.877641,24.130163],[120.878097,24.130926],[120.8788,24.131493],[120.878465,24.132038],[120.878903,24.13218],[120.879824,24.131902],[120.880639,24.131486],[120.879807,24.13116],[120.879119,24.130533],[120.879501,24.130602],[120.880264,24.130628],[120.880892,24.129941],[120.881293,24.129134],[120.881623,24.128564],[120.881005,24.129164],[120.880441,24.129872],[120.879889,24.129416],[120.879431,24.128662],[120.878589,24.128222],[120.878593,24.127513],[120.878454,24.126817],[120.877661,24.126517],[120.87859,24.126498],[120.87809,24.125917],[120.877251,24.125488],[120.876509,24.124904],[120.876418,24.124205],[120.877332,24.124237],[120.878246,24.123943],[120.879221,24.123975],[120.880164,24.123841],[120.881023,24.123413],[120.881832,24.122929],[120.88273,24.123248],[120.883567,24.123653],[120.884423,24.123723],[120.885153,24.123186],[120.886078,24.12303],[120.886571,24.12236],[120.886581,24.121525],[120.887156,24.12092],[120.887489,24.120208],[120.888443,24.120235],[120.889137,24.119938],[120.889389,24.119089],[120.889963,24.118483],[120.890853,24.118173],[120.891166,24.117413],[120.890766,24.116759],[120.890038,24.116197],[120.889235,24.115705],[120.888396,24.11535],[120.889184,24.114918],[120.889168,24.114032],[120.889297,24.113163],[120.889253,24.112285],[120.889664,24.111517],[120.890505,24.111069],[120.891416,24.110754],[120.891478,24.110018],[120.89124,24.109149],[120.891306,24.108269],[120.891365,24.107378],[120.891152,24.106508],[120.89088,24.105654],[120.890563,24.104818],[120.890374,24.103954],[120.889523,24.1036],[120.889159,24.103099],[120.89004,24.102756],[120.889934,24.101883],[120.889831,24.100992],[120.8895,24.100154],[120.889123,24.099384],[120.889047,24.098562],[120.888484,24.097829],[120.888095,24.09702],[120.888094,24.096126],[120.888108,24.095251],[120.887723,24.094423],[120.887405,24.09357],[120.887086,24.092718],[120.886838,24.091846],[120.886558,24.090986],[120.886174,24.090158],[120.885857,24.089304],[120.88554,24.088451],[120.885223,24.087598],[120.884906,24.086745],[120.884588,24.085892],[120.884185,24.085078],[120.88363,24.084336],[120.883251,24.083505],[120.882842,24.082685],[120.882407,24.081877],[120.881965,24.081072],[120.881514,24.080271],[120.880631,24.080062],[120.879686,24.080305],[120.878737,24.080532],[120.877872,24.08014],[120.877408,24.079409],[120.877281,24.078515],[120.877296,24.077623],[120.876975,24.076774],[120.876845,24.075903],[120.877153,24.075058],[120.877046,24.074195],[120.876442,24.073485],[120.876377,24.072597],[120.876244,24.071708],[120.876066,24.070821],[120.875886,24.069935],[120.875693,24.069051],[120.875761,24.068154],[120.875874,24.067259],[120.876006,24.066366],[120.876192,24.065481],[120.876882,24.064859],[120.877387,24.064103],[120.877703,24.063252],[120.878054,24.062427],[120.878968,24.06214],[120.87975,24.0616],[120.880452,24.061009],[120.880529,24.060112],[120.880162,24.059279],[120.879875,24.058425],[120.880333,24.057771],[120.881108,24.058266],[120.882047,24.058248],[120.882501,24.059026],[120.882792,24.059846],[120.883473,24.060487],[120.884091,24.061143],[120.884759,24.061747],[120.885589,24.062142],[120.886562,24.06207],[120.887532,24.061929],[120.888502,24.061789],[120.889472,24.061649],[120.890441,24.061508],[120.891411,24.061368],[120.892381,24.061228],[120.893356,24.06115],[120.894335,24.061214],[120.895315,24.061189],[120.896293,24.061106],[120.89727,24.061019],[120.898238,24.060868],[120.899201,24.060694],[120.900163,24.060513],[120.900968,24.060017],[120.901698,24.059414],[120.90243,24.058814],[120.90331,24.058445],[120.904255,24.058204],[120.905186,24.058431],[120.906088,24.058198],[120.907007,24.058145],[120.907952,24.0583],[120.908918,24.058136],[120.909883,24.057972],[120.910848,24.057808],[120.91182,24.0577],[120.912787,24.05785],[120.913758,24.057979],[120.914733,24.058086],[120.915708,24.058193],[120.916683,24.0583],[120.917658,24.058407],[120.918634,24.058489],[120.919613,24.058429],[120.920588,24.058329],[120.921555,24.058172],[120.922473,24.05842],[120.923452,24.058367],[120.92443,24.058295],[120.925409,24.058229],[120.926389,24.058271],[120.927363,24.058384],[120.928336,24.058498],[120.929294,24.058683],[120.930245,24.058905],[120.931218,24.059008],[120.9322,24.059011],[120.933181,24.059037],[120.934162,24.059063],[120.935144,24.05908],[120.936125,24.059097],[120.937107,24.059113],[120.937499,24.05878],[120.936765,24.058184],[120.935925,24.057737],[120.934968,24.057568],[120.935017,24.056954],[120.935686,24.057011],[120.935033,24.056346],[120.934608,24.055553],[120.933823,24.055131],[120.933979,24.05425],[120.93415,24.053373],[120.934485,24.052537],[120.934456,24.051636],[120.935081,24.051013],[120.934986,24.050283],[120.935745,24.050103],[120.935536,24.049412],[120.934623,24.049736],[120.933718,24.049524],[120.932858,24.04994],[120.933221,24.049245],[120.93385,24.048553],[120.934772,24.048277],[120.935683,24.048462],[120.935305,24.047806],[120.934511,24.047275],[120.934366,24.046753],[120.935178,24.047257],[120.935902,24.047773],[120.93666,24.047607],[120.937301,24.046972],[120.936604,24.04687],[120.935681,24.0466],[120.934969,24.046077],[120.935774,24.046239],[120.936704,24.046447],[120.93636,24.046004],[120.93545,24.045692],[120.934479,24.045706],[120.933606,24.046035],[120.932948,24.046702],[120.932341,24.047403],[120.931664,24.047114],[120.93119,24.046325],[120.930577,24.04563],[120.929631,24.045396],[120.928687,24.045148],[120.928235,24.044383],[120.927882,24.043542],[120.927528,24.042701],[120.927175,24.04186],[120.926822,24.041019],[120.926468,24.040178],[120.926115,24.039337],[120.925762,24.038496],[120.925403,24.037656],[120.92504,24.036819],[120.924677,24.035981],[120.924518,24.035117],[120.924855,24.034275],[120.925474,24.033575],[120.926108,24.032888],[120.927038,24.032674],[120.928012,24.032592],[120.928705,24.031975],[120.929331,24.031281],[120.930127,24.030755],[120.930936,24.030244],[120.931662,24.029643],[120.93219,24.028893],[120.932152,24.028003],[120.932371,24.02717],[120.933042,24.026512],[120.933867,24.026051],[120.934818,24.025874],[120.935798,24.025926],[120.93677,24.026023],[120.937594,24.026512],[120.93849,24.026873],[120.939417,24.027168],[120.940346,24.027458],[120.941326,24.027476],[120.942281,24.027683],[120.94324,24.02782],[120.943997,24.027259],[120.944799,24.026749],[120.945454,24.026078],[120.946052,24.025365],[120.946959,24.025165],[120.947727,24.024643],[120.948617,24.024299],[120.949564,24.024063],[120.950371,24.023559],[120.951116,24.022971],[120.951708,24.022287],[120.951898,24.021403],[120.952105,24.020522],[120.95232,24.019642],[120.952533,24.018762],[120.952735,24.01788],[120.952937,24.016997],[120.953132,24.016114],[120.953166,24.015216],[120.953295,24.01434],[120.953674,24.013508],[120.954054,24.012677],[120.954433,24.011845],[120.954812,24.011014],[120.955192,24.010183],[120.955571,24.009351],[120.955951,24.00852],[120.95633,24.007688],[120.956709,24.006857],[120.957104,24.006032],[120.957734,24.005362],[120.958491,24.004789],[120.959248,24.004215],[120.960005,24.003641],[120.960762,24.003067],[120.961519,24.002493],[120.962275,24.001919],[120.963032,24.001345],[120.963789,24.000772],[120.964546,24.000198],[120.965303,23.999624],[120.966064,23.999055],[120.966821,23.998481],[120.967574,23.997904],[120.968328,23.997326],[120.969084,23.996751],[120.969841,23.996178],[120.970598,23.995604],[120.971355,23.995031],[120.972112,23.994457],[120.972869,23.993884],[120.973626,23.99331],[120.974383,23.992737],[120.975035,23.9921],[120.974776,23.991231],[120.974509,23.990363],[120.974242,23.989496],[120.973978,23.988628],[120.973717,23.987759],[120.973456,23.98689],[120.973195,23.986021],[120.972931,23.985152],[120.972648,23.984289],[120.972364,23.983426],[120.972081,23.982563],[120.971814,23.981696],[120.971548,23.980828],[120.971283,23.97996],[120.971017,23.979092],[120.970752,23.978224],[120.970486,23.977356],[120.970215,23.97649],[120.969939,23.975625],[120.969729,23.974745],[120.969671,23.973846],[120.969249,23.97328],[120.968268,23.973279],[120.967287,23.973279],[120.966306,23.973279],[120.965324,23.973278],[120.964349,23.973205],[120.963404,23.972962],[120.962465,23.9727],[120.961528,23.972435],[120.96059,23.972171],[120.959652,23.971906],[120.958714,23.971641],[120.957776,23.971376],[120.956839,23.971111],[120.955899,23.970852],[120.954957,23.9706],[120.954019,23.970337],[120.953093,23.97004],[120.952154,23.970166],[120.95121,23.970409],[120.950266,23.970657],[120.949323,23.970906],[120.948376,23.971141],[120.947707,23.970866],[120.947463,23.969993],[120.947045,23.969187],[120.946572,23.968409],[120.94662,23.967511],[120.946267,23.966673],[120.946285,23.965914],[120.946532,23.965054],[120.946377,23.964169],[120.946107,23.963303],[120.945913,23.96242],[120.9457,23.96154],[120.945383,23.960687],[120.944966,23.959871],[120.944516,23.959071],[120.944066,23.95827],[120.943591,23.957481],[120.942935,23.956815],[120.942115,23.956324],[120.941252,23.955895],[120.940427,23.95541],[120.939765,23.954745],[120.939159,23.954038],[120.938815,23.9532],[120.938807,23.952302],[120.938851,23.951402],[120.938669,23.950525],[120.93813,23.949773],[120.937612,23.94901],[120.937296,23.948162],[120.93712,23.947275],[120.936832,23.946418],[120.936241,23.945705],[120.935497,23.945119],[120.934663,23.944654],[120.933708,23.944466],[120.932727,23.944454],[120.93177,23.944286],[120.93101,23.943726],[120.930403,23.943018],[120.929788,23.942317],[120.929093,23.941682],[120.928341,23.941103],[120.927654,23.940462],[120.927168,23.93968],[120.926788,23.93885],[120.92657,23.937976],[120.926666,23.937082],[120.926809,23.93619],[120.926661,23.935306],[120.926149,23.934544],[120.925403,23.93396],[120.924601,23.933443],[120.923682,23.933133],[120.922758,23.932846],[120.922245,23.932108],[120.92246,23.931247],[120.92289,23.930439],[120.922985,23.929549],[120.922741,23.928677],[120.922388,23.927837],[120.92223,23.926951],[120.922251,23.926049],[120.922292,23.925149],[120.922339,23.924248],[120.922396,23.923348],[120.922478,23.92245],[120.922598,23.921555],[120.92275,23.920665],[120.923153,23.919857],[120.923935,23.919321],[120.924816,23.918925],[120.925701,23.918537],[120.926542,23.918085],[120.926958,23.917287],[120.926857,23.916393],[120.926676,23.915507],[120.926495,23.914621],[120.926335,23.913732],[120.92623,23.912836],[120.926143,23.911938],[120.92601,23.911045],[120.925825,23.91016],[120.925604,23.909281],[120.925528,23.908385],[120.925765,23.90752],[120.926208,23.906716],[120.92666,23.905916],[120.927113,23.905116],[120.927557,23.904313],[120.928002,23.903509],[120.928464,23.902714],[120.929165,23.902097],[120.929954,23.901561],[120.930801,23.901112],[120.93168,23.900712],[120.932549,23.900296],[120.933273,23.89971],[120.93335,23.898832],[120.933233,23.897937],[120.933117,23.897042],[120.932934,23.896162],[120.932232,23.895592],[120.931329,23.895243],[120.930398,23.89496],[120.929467,23.894679],[120.928522,23.894438],[120.927555,23.894292],[120.92658,23.894203],[120.925636,23.89398],[120.924821,23.893487],[120.924142,23.892838],[120.923512,23.892148],[120.923004,23.891379],[120.922604,23.890556],[120.922281,23.889706],[120.922074,23.888825],[120.921921,23.887934],[120.921768,23.887044],[120.921615,23.886153],[120.921398,23.885275],[120.92111,23.884414],[120.920794,23.88356],[120.920492,23.882703],[120.920373,23.88181],[120.920433,23.880911],[120.9206,23.880023],[120.920767,23.879135],[120.920878,23.878241],[120.920661,23.877368],[120.920108,23.876628],[120.919469,23.875946],[120.919286,23.875085],[120.919789,23.874327],[120.920359,23.873604],[120.920506,23.872722],[120.919951,23.872173],[120.918973,23.872177],[120.918045,23.872081],[120.917156,23.871904],[120.916352,23.871677],[120.916494,23.870818],[120.916413,23.869923],[120.916287,23.869029],[120.915985,23.868178],[120.915442,23.86743],[120.914861,23.866708],[120.914746,23.865841],[120.914272,23.865188],[120.913321,23.865322],[120.912352,23.865452],[120.911983,23.866154],[120.911175,23.866646],[120.910298,23.867048],[120.909417,23.867444],[120.908506,23.867774],[120.907589,23.867536],[120.90677,23.867041],[120.905843,23.866765],[120.904875,23.866762],[120.904027,23.867177],[120.903189,23.867639],[120.902542,23.867257],[120.902737,23.866374],[120.90299,23.865506],[120.90349,23.864732],[120.903973,23.863951],[120.904142,23.86307],[120.903652,23.862599],[120.902693,23.862472],[120.901747,23.862235],[120.900802,23.861997],[120.900196,23.861414],[120.899702,23.860676],[120.900009,23.859924],[120.900664,23.859286],[120.900482,23.858415],[120.900561,23.857558],[120.90142,23.85715],[120.902123,23.856577],[120.902082,23.855686],[120.901884,23.854804],[120.901686,23.853921],[120.901488,23.853038],[120.90129,23.852155],[120.901092,23.851272],[120.900879,23.850392],[120.900816,23.849495],[120.900934,23.848601],[120.90111,23.847714],[120.901276,23.846826],[120.901425,23.845935],[120.901521,23.845038],[120.901281,23.844187],[120.900643,23.843505],[120.899779,23.84311],[120.89882,23.842921],[120.897869,23.842708],[120.89727,23.842072],[120.89773,23.841342],[120.89867,23.841094],[120.89959,23.840786],[120.900489,23.840434],[120.90146,23.840385],[120.902431,23.840329],[120.902912,23.839611],[120.90238,23.838895],[120.901584,23.83837],[120.900787,23.837845],[120.900084,23.837222],[120.899555,23.836466],[120.899052,23.835692],[120.898428,23.835006],[120.897567,23.834593],[120.896676,23.834234],[120.896026,23.833568],[120.895654,23.832776],[120.896178,23.832052],[120.89632,23.831181],[120.895694,23.83065],[120.894721,23.830632],[120.894213,23.829994],[120.89383,23.829174],[120.894175,23.828389],[120.894194,23.8275],[120.893975,23.826632],[120.893646,23.82579],[120.892798,23.825632],[120.892496,23.826449],[120.891732,23.826565],[120.891297,23.82578],[120.890495,23.825416],[120.889555,23.825566],[120.889134,23.824838],[120.888432,23.824276],[120.887897,23.823697],[120.888109,23.822857],[120.888506,23.822148],[120.887765,23.821589],[120.887221,23.820847],[120.887144,23.819989],[120.887041,23.81914],[120.886541,23.818372],[120.885912,23.817692],[120.884976,23.817499],[120.884074,23.817165],[120.883744,23.816389],[120.884071,23.815557],[120.884355,23.814718],[120.885013,23.814081],[120.885736,23.813531],[120.886044,23.812682],[120.886098,23.811796],[120.885754,23.810962],[120.885498,23.810111],[120.885131,23.809303],[120.884784,23.808468],[120.884454,23.807626],[120.88397,23.806886],[120.883226,23.807326],[120.882373,23.807581],[120.881862,23.80697],[120.881532,23.806223],[120.880797,23.806729],[120.880141,23.807327],[120.879974,23.806606],[120.879142,23.806401],[120.878185,23.80656],[120.877238,23.806764],[120.876723,23.807486],[120.876005,23.807849],[120.875073,23.807591],[120.874135,23.807361],[120.873275,23.807759],[120.872319,23.807887],[120.871346,23.807912],[120.87043,23.807667],[120.869547,23.807343],[120.868783,23.806919],[120.868165,23.806248],[120.868098,23.805446],[120.868382,23.804594],[120.868355,23.8037],[120.868299,23.802806],[120.868242,23.801912],[120.868441,23.801053],[120.868764,23.800211],[120.868832,23.799325],[120.868901,23.798436],[120.868916,23.797542],[120.86889,23.796647],[120.868783,23.79576],[120.868686,23.794872],[120.869172,23.794316],[120.870023,23.793895],[120.870837,23.793406],[120.871738,23.793069],[120.872212,23.792327],[120.872627,23.791527],[120.87323,23.790852],[120.873391,23.789969],[120.873631,23.789104],[120.873913,23.788248],[120.873744,23.787401],[120.873002,23.786821],[120.872401,23.786131],[120.871881,23.785381],[120.8714,23.784604],[120.870855,23.783874],[120.870137,23.783269],[120.869415,23.782672],[120.869147,23.781837],[120.869509,23.781035],[120.870294,23.780525],[120.870329,23.779675],[120.869703,23.778992],[120.869061,23.77832],[120.868592,23.777538],[120.868197,23.77672],[120.867645,23.775993],[120.866919,23.775399],[120.866268,23.774744],[120.866059,23.77387],[120.865876,23.772991],[120.865736,23.772106],[120.865658,23.771213],[120.865588,23.77032],[120.865525,23.769429],[120.8657,23.768551],[120.865946,23.767688],[120.865877,23.7668],[120.865723,23.765916],[120.865549,23.765036],[120.865246,23.764185],[120.864958,23.76333],[120.864652,23.76248],[120.864415,23.761613],[120.864361,23.760726],[120.86435,23.759833],[120.864273,23.75894],[120.864006,23.758081],[120.863975,23.757193],[120.863613,23.756363],[120.86308,23.755616],[120.862686,23.754798],[120.862392,23.753945],[120.862109,23.753088],[120.861865,23.752221],[120.861694,23.751344],[120.861716,23.750449],[120.861556,23.749572],[120.861354,23.748698],[120.861213,23.747813],[120.86088,23.746976],[120.860305,23.746255],[120.860021,23.745424],[120.859487,23.744728],[120.858852,23.744086],[120.858586,23.743233],[120.857944,23.742578],[120.857164,23.742043],[120.856439,23.741454],[120.856353,23.740586],[120.856491,23.739699],[120.856628,23.738813],[120.856545,23.737924],[120.856362,23.737046],[120.856119,23.736178],[120.855686,23.735412],[120.854883,23.734916],[120.854835,23.734089],[120.855192,23.733265],[120.854982,23.732394],[120.854778,23.731518],[120.85468,23.730631],[120.854779,23.729741],[120.855019,23.728874],[120.854935,23.727985],[120.854809,23.727097],[120.854653,23.726213],[120.854353,23.725362],[120.854086,23.724501],[120.853862,23.72363],[120.853638,23.722758],[120.853413,23.721887],[120.853189,23.721015],[120.85302,23.720136],[120.85303,23.719241],[120.853355,23.718462],[120.854304,23.71827],[120.855221,23.717991],[120.85605,23.717523],[120.856722,23.716932],[120.8564,23.716097],[120.856001,23.715281],[120.85561,23.714461],[120.854907,23.713874],[120.854176,23.713292],[120.853564,23.712596],[120.853148,23.711819],[120.853155,23.710923],[120.853177,23.710028],[120.853199,23.709133],[120.853226,23.708238],[120.853252,23.707343],[120.853279,23.706448],[120.853306,23.705552],[120.853333,23.704657],[120.85336,23.703762],[120.853429,23.702872],[120.853809,23.702049],[120.854204,23.701231],[120.854446,23.700377],[120.854428,23.699481],[120.854411,23.698586],[120.854025,23.697771],[120.854129,23.696943],[120.854555,23.696138],[120.85525,23.69557],[120.856072,23.695101],[120.856747,23.694458],[120.857343,23.69375],[120.8579,23.693018],[120.858367,23.692233],[120.858703,23.691396],[120.859047,23.690562],[120.85948,23.689761],[120.860203,23.689255],[120.86116,23.6891],[120.862014,23.688678],[120.862823,23.68819],[120.86311,23.687337],[120.863401,23.686484],[120.863619,23.685617],[120.863963,23.684796],[120.864776,23.68435],[120.86569,23.684081],[120.866466,23.683546],[120.867069,23.682858],[120.867316,23.681993],[120.867681,23.681163],[120.867947,23.680303],[120.868171,23.679431],[120.868423,23.678567],[120.868711,23.677712],[120.86914,23.67692],[120.86972,23.676207],[120.869852,23.675323],[120.870113,23.674465],[120.870608,23.673695],[120.871132,23.672941],[120.871647,23.672182],[120.872016,23.671355],[120.872276,23.670492],[120.872556,23.669634],[120.872843,23.668779],[120.873126,23.667923],[120.873476,23.667088],[120.873891,23.666279],[120.874247,23.66545],[120.874828,23.664733],[120.87545,23.664046],[120.876118,23.663397],[120.876701,23.662683],[120.877276,23.661961],[120.877844,23.661234],[120.878411,23.660507],[120.878979,23.65978],[120.879546,23.659053],[120.880114,23.658326],[120.880681,23.657598],[120.881248,23.656871],[120.881796,23.656132],[120.882151,23.655303],[120.882235,23.654415],[120.882048,23.653539],[120.88178,23.652678],[120.881512,23.651818],[120.881278,23.650949],[120.881216,23.650057],[120.881343,23.649172],[120.881577,23.648303],[120.881817,23.647435],[120.882081,23.646573],[120.882436,23.645741],[120.882827,23.644921],[120.883155,23.64408],[120.883406,23.643217],[120.883686,23.642361],[120.88389,23.641486],[120.884095,23.640611],[120.8843,23.639735],[120.884505,23.63886],[120.88476,23.637997],[120.88504,23.637139],[120.885225,23.636261],[120.885405,23.635381],[120.885594,23.634503],[120.885798,23.633627],[120.886015,23.632754],[120.886278,23.631892],[120.886543,23.631031],[120.886898,23.630204],[120.887499,23.6295],[120.888062,23.628772],[120.888639,23.628082],[120.889503,23.627673],[120.890355,23.62724],[120.891222,23.626845],[120.892184,23.626716],[120.893077,23.626398],[120.893377,23.625601],[120.893124,23.624743],[120.89356,23.623951],[120.894178,23.623267],[120.894196,23.622376],[120.89396,23.62151],[120.893709,23.620646],[120.893826,23.619768],[120.894075,23.618907],[120.893641,23.618126],[120.893293,23.617309],[120.893194,23.616418],[120.893109,23.615527],[120.893121,23.614631],[120.893132,23.613736],[120.893155,23.612841],[120.893177,23.611945],[120.893285,23.611058],[120.89309,23.610233],[120.892429,23.609579],[120.892197,23.608724],[120.891944,23.607867],[120.891464,23.607102],[120.890675,23.606626],[120.890725,23.60574],[120.890892,23.604862],[120.89132,23.604064],[120.891513,23.603189],[120.891388,23.602303],[120.891265,23.601416],[120.891109,23.600539],[120.890273,23.600128],[120.889347,23.599858],[120.888814,23.599178],[120.889003,23.598301],[120.889111,23.597414],[120.889039,23.596523],[120.888825,23.595649],[120.888612,23.594776],[120.888447,23.593895],[120.888619,23.593021],[120.888976,23.592189],[120.889287,23.591344],[120.88941,23.590456],[120.889532,23.589568],[120.889709,23.588687],[120.8892,23.58817],[120.888231,23.588182],[120.88741,23.587736],[120.886759,23.587072],[120.886103,23.586413],[120.885398,23.585798],[120.884833,23.585072],[120.884231,23.58437],[120.883606,23.583684],[120.882879,23.583095],[120.882262,23.582406],[120.881664,23.581702],[120.88087,23.581193],[120.880088,23.580665],[120.879473,23.579974],[120.878762,23.57938],[120.878459,23.578531],[120.878148,23.577683],[120.877841,23.576834],[120.877438,23.576025],[120.876846,23.575315],[120.876269,23.574595],[120.875743,23.573843],[120.875215,23.573091],[120.874563,23.57244],[120.873739,23.571985],[120.87326,23.571216],[120.873097,23.570334],[120.872644,23.569562],[120.871818,23.569112],[120.871247,23.568394],[120.870368,23.568036],[120.869562,23.567558],[120.868926,23.566881],[120.868302,23.566194],[120.867805,23.565426],[120.867364,23.564629],[120.867483,23.563764],[120.867731,23.562901],[120.867626,23.562014],[120.867476,23.561129],[120.867326,23.560244],[120.867177,23.559359],[120.867005,23.558479],[120.866256,23.557942],[120.865873,23.557128],[120.865475,23.556312],[120.864958,23.555557],[120.864359,23.554852],[120.863819,23.554115],[120.863809,23.553235],[120.864229,23.552428],[120.864359,23.551555],[120.863913,23.550776],[120.863171,23.550205],[120.862836,23.549381],[120.862941,23.548492],[120.863102,23.547609],[120.863661,23.54699],[120.864538,23.546656],[120.865346,23.546197],[120.866274,23.546375],[120.866826,23.547092],[120.866786,23.54798],[120.866505,23.548812],[120.865652,23.54924],[120.865374,23.549904],[120.866162,23.550428],[120.866953,23.550947],[120.867696,23.551514],[120.868308,23.552196],[120.869226,23.552489],[120.869586,23.553195],[120.870219,23.553446],[120.87089,23.55387],[120.870507,23.554685],[120.870949,23.555438],[120.871751,23.555914],[120.872688,23.55615],[120.873624,23.556389],[120.874388,23.556932],[120.875221,23.55715],[120.875733,23.556395],[120.876603,23.556316],[120.87722,23.556979],[120.877365,23.557862],[120.877827,23.558614],[120.878498,23.558848],[120.879316,23.558438],[120.880274,23.558559],[120.881156,23.558193],[120.882038,23.557818],[120.882964,23.557557],[120.883864,23.557789],[120.88414,23.558596],[120.883662,23.559355],[120.882905,23.559915],[120.882077,23.560385],[120.881299,23.560916],[120.88104,23.56161],[120.881679,23.562213],[120.882243,23.562852],[120.883206,23.562748],[120.88414,23.562823],[120.884815,23.563466],[120.8855,23.564101],[120.886215,23.564668],[120.887146,23.564642],[120.887344,23.565499],[120.888105,23.565951],[120.889072,23.566019],[120.889842,23.565558],[120.890584,23.564992],[120.891523,23.564775],[120.892451,23.564793],[120.892587,23.565665],[120.892119,23.56635],[120.891322,23.566817],[120.890766,23.567522],[120.890464,23.568372],[120.890601,23.5692],[120.891536,23.56923],[120.892247,23.569712],[120.892485,23.570579],[120.892921,23.571344],[120.893851,23.571177],[120.894776,23.571327],[120.895703,23.571597],[120.896635,23.571847],[120.897598,23.571955],[120.898569,23.571966],[120.899534,23.572046],[120.900289,23.571734],[120.900648,23.570911],[120.901447,23.570423],[120.901626,23.569545],[120.902312,23.569104],[120.903126,23.568777],[120.903399,23.567925],[120.903902,23.567159],[120.904413,23.5664],[120.905301,23.566091],[120.906128,23.565742],[120.906275,23.564861],[120.906924,23.56421],[120.907339,23.563408],[120.90698,23.562604],[120.906506,23.561828],[120.90654,23.560935],[120.906602,23.560041],[120.907101,23.559332],[120.907323,23.558518],[120.907447,23.557664],[120.908302,23.557828],[120.909151,23.558227],[120.910003,23.557814],[120.910727,23.557225],[120.911488,23.556772],[120.912404,23.556664],[120.912832,23.555862],[120.912693,23.554998],[120.912852,23.554127],[120.913096,23.553262],[120.913229,23.552404],[120.914191,23.552368],[120.915033,23.552019],[120.915496,23.551238],[120.915789,23.550397],[120.91509,23.549821],[120.91424,23.549389],[120.91336,23.549027],[120.912574,23.548509],[120.911907,23.547902],[120.912291,23.547122],[120.912654,23.546307],[120.913461,23.545826],[120.914264,23.545328],[120.914935,23.544753],[120.915073,23.543867],[120.915195,23.542979],[120.91448,23.542726],[120.913738,23.543297],[120.912783,23.543391],[120.911837,23.543266],[120.910986,23.542841],[120.910186,23.542336],[120.909272,23.542565],[120.908392,23.542582],[120.908127,23.541727],[120.907851,23.540869],[120.907281,23.540179],[120.906465,23.539695],[120.905794,23.539061],[120.905367,23.538333],[120.906216,23.538025],[120.907177,23.538085],[120.90814,23.538008],[120.908948,23.537568],[120.909908,23.537664],[120.910816,23.537348],[120.91166,23.536912],[120.912454,23.536398],[120.91259,23.53556],[120.913417,23.535121],[120.913867,23.534365],[120.913714,23.533506],[120.914042,23.532665],[120.914421,23.531843],[120.914041,23.531159],[120.913412,23.530477],[120.912717,23.529852],[120.911831,23.529735],[120.910903,23.529658],[120.909992,23.52935],[120.909025,23.529298],[120.908259,23.528904],[120.908857,23.528392],[120.909649,23.528003],[120.910532,23.527671],[120.911386,23.52727],[120.912072,23.526648],[120.912914,23.526242],[120.913631,23.525737],[120.913121,23.525019],[120.913057,23.524137],[120.913424,23.523346],[120.913705,23.522574],[120.91387,23.521728],[120.913824,23.520898],[120.913423,23.520094],[120.912483,23.519927],[120.911529,23.52009],[120.91057,23.520199],[120.909643,23.519944],[120.908731,23.519638],[120.908843,23.518893],[120.909332,23.518127],[120.909183,23.517284],[120.908341,23.516934],[120.907496,23.516634],[120.90794,23.515944],[120.908576,23.515331],[120.909534,23.51519],[120.910489,23.515054],[120.911373,23.515404],[120.911293,23.514971],[120.910334,23.514831],[120.909371,23.514725],[120.908426,23.51491],[120.907531,23.515252],[120.906862,23.515898],[120.90621,23.516559],[120.906821,23.517089],[120.907666,23.517521],[120.908473,23.517937],[120.908015,23.518697],[120.907194,23.519009],[120.906685,23.519659],[120.907275,23.520268],[120.908158,23.520531],[120.909066,23.520728],[120.909834,23.521263],[120.910798,23.521322],[120.911386,23.521798],[120.911351,23.522693],[120.911097,23.523557],[120.911077,23.524444],[120.911137,23.525334],[120.9103,23.52575],[120.909392,23.526052],[120.908427,23.525984],[120.907568,23.525624],[120.906696,23.525305],[120.905824,23.524962],[120.90486,23.52494],[120.904281,23.52565],[120.903843,23.526448],[120.90367,23.527322],[120.903687,23.528217],[120.904248,23.528889],[120.9046,23.529693],[120.9055,23.52999],[120.906234,23.530557],[120.906906,23.531204],[120.907577,23.531851],[120.908258,23.53249],[120.908595,23.533307],[120.908557,23.534197],[120.90772,23.534431],[120.906771,23.534473],[120.905802,23.534489],[120.904852,23.534663],[120.904087,23.534183],[120.903211,23.533845],[120.902314,23.53415],[120.901363,23.534313],[120.900446,23.534179],[120.899821,23.534821],[120.899223,23.535183],[120.899054,23.535999],[120.898909,23.536849],[120.899491,23.53755],[120.899561,23.538438],[120.899699,23.539324],[120.899705,23.540213],[120.899791,23.541101],[120.900043,23.541958],[120.899671,23.541826],[120.899529,23.540941],[120.899255,23.540083],[120.89895,23.539233],[120.898804,23.538348],[120.898107,23.537835],[120.897896,23.536972],[120.897478,23.536343],[120.896575,23.536057],[120.895979,23.535355],[120.895246,23.534784],[120.895703,23.534214],[120.896224,23.533467],[120.896197,23.53258],[120.896363,23.531704],[120.897209,23.531932],[120.898024,23.531646],[120.898796,23.53118],[120.899684,23.531518],[120.90065,23.531591],[120.901389,23.532151],[120.90213,23.531765],[120.901508,23.53115],[120.900626,23.530843],[120.899727,23.530754],[120.898929,23.530307],[120.898544,23.529489],[120.898252,23.528636],[120.89793,23.527793],[120.897607,23.52695],[120.897802,23.526079],[120.898121,23.525246],[120.898365,23.524411],[120.899281,23.524283],[120.899907,23.523673],[120.899915,23.522804],[120.899495,23.52202],[120.89918,23.52118],[120.898695,23.520406],[120.898164,23.519661],[120.897733,23.518881],[120.89742,23.518051],[120.896947,23.517291],[120.897419,23.516554],[120.898148,23.51598],[120.89847,23.51537],[120.899346,23.515007],[120.899144,23.514418],[120.898462,23.51422],[120.898809,23.514937],[120.897871,23.515057],[120.896912,23.515116],[120.896247,23.515391],[120.896759,23.516121],[120.896083,23.516715],[120.895772,23.517439],[120.895974,23.518295],[120.896218,23.51916],[120.896572,23.519993],[120.897164,23.520698],[120.897588,23.521498],[120.897033,23.522161],[120.896167,23.522355],[120.8953,23.521984],[120.89483,23.521494],[120.894909,23.520643],[120.895276,23.519828],[120.895195,23.518936],[120.894501,23.518436],[120.89395,23.517837],[120.893196,23.517544],[120.892557,23.516888],[120.891698,23.516488],[120.890876,23.516028],[120.890581,23.515364],[120.891046,23.514585],[120.89075,23.51374],[120.890637,23.512871],[120.891098,23.512086],[120.891269,23.511209],[120.891602,23.510371],[120.891755,23.509487],[120.891962,23.508613],[120.892138,23.507732],[120.892522,23.506913],[120.892196,23.506083],[120.891749,23.505291],[120.891035,23.504851],[120.890103,23.504891],[120.890144,23.504043],[120.889984,23.503176],[120.890408,23.502487],[120.890994,23.501781],[120.891615,23.501104],[120.892282,23.500462],[120.89225,23.499601],[120.891806,23.498833],[120.89217,23.498032],[120.89238,23.497184],[120.892386,23.496291],[120.892658,23.495434],[120.892859,23.494568],[120.893233,23.49375],[120.893052,23.492883],[120.89269,23.492054],[120.89197,23.49146],[120.891564,23.490674],[120.891415,23.490348],[120.891323,23.490026],[120.891244,23.489701],[120.891166,23.489376],[120.891067,23.489056],[120.890863,23.488784],[120.890625,23.488534],[120.890408,23.488269],[120.890364,23.487946],[120.890373,23.487614],[120.890341,23.487502]]}}]}