{
  "type": "FeatureCollection",
  "meta": {
    "generated_at": "2026-09-15T13:21:12+00:00",
    "sources": [
      {
        "name": "TDX 路況資訊v2 Live/News/Highway",
        "fetched_at": "2026-09-15T13:21:09+00:00",
        "count": 0
      },
      {
        "name": "scripts/manual_rules.json（人工維護常態規則）",
        "fetched_at": "2026-09-15T13:21:09+00:00",
        "count": 1
      }
    ]
  },
  "features": [
    {
      "type": "Feature",
      "properties": {
        "road": "台21線",
        "direction": "雙向",
        "from_km": "110K+900",
        "to_km": "145K+035",
        "type": "closure",
        "title": "台21線 110K+900（草坪頭）–145K+035（塔塔加）夜間封閉",
        "summary": "每日 17:30 至翌日 07:00 全車種禁止通行、道路封閉（長期性管制）",
        "description": "台21線110K+900(草坪頭)至145K+035(塔塔加)路段仍維持各類車種夜間(每日17:30~翌日7:00)禁止通行，道路封閉。（公路局公告，民國102年11月9日起實施；112-05-01 公告僅調整白天甲類大客車分流規定，夜間封閉未變。）",
        "schedule": "每日 17:30–翌日 07:00 封閉",
        "rules": [
          {
            "days": "daily",
            "from": "17:30",
            "to": "07:00",
            "effect": "closed",
            "note": "各類車種夜間禁止通行、道路封閉（跨午夜）"
          }
        ],
        "start_date": "2013-11-09",
        "end_date": "",
        "source_name": "公路局中區養護工程分局公告",
        "source_url": "https://thbu2.thb.gov.tw/News_Content_table.aspx?n=4437&sms=13364&s=215673",
        "last_verified": "2026-09-10",
        "parse_warnings": [],
        "source_id": "",
        "status": "active",
        "id": "52213d158ad9",
        "fetched_at": "2026-09-15T13:21:09+00:00",
        "geom_precision": "route-interp"
      },
      "geometry": {
        "type": "LineString",
        "coordinates": [
          [
            120.875733,
            23.556395
          ],
          [
            120.876603,
            23.556316
          ],
          [
            120.87722,
            23.556979
          ],
          [
            120.877365,
            23.557862
          ],
          [
            120.877827,
            23.558614
          ],
          [
            120.878498,
            23.558848
          ],
          [
            120.879316,
            23.558438
          ],
          [
            120.880274,
            23.558559
          ],
          [
            120.881156,
            23.558193
          ],
          [
            120.882038,
            23.557818
          ],
          [
            120.882964,
            23.557557
          ],
          [
            120.883864,
            23.557789
          ],
          [
            120.88414,
            23.558596
          ],
          [
            120.883662,
            23.559355
          ],
          [
            120.882905,
            23.559915
          ],
          [
            120.882077,
            23.560385
          ],
          [
            120.881299,
            23.560916
          ],
          [
            120.88104,
            23.56161
          ],
          [
            120.881679,
            23.562213
          ],
          [
            120.882243,
            23.562852
          ],
          [
            120.883206,
            23.562748
          ],
          [
            120.88414,
            23.562823
          ],
          [
            120.884815,
            23.563466
          ],
          [
            120.8855,
            23.564101
          ],
          [
            120.886215,
            23.564668
          ],
          [
            120.887146,
            23.564642
          ],
          [
            120.887344,
            23.565499
          ],
          [
            120.888105,
            23.565951
          ],
          [
            120.889072,
            23.566019
          ],
          [
            120.889842,
            23.565558
          ],
          [
            120.890584,
            23.564992
          ],
          [
            120.891523,
            23.564775
          ],
          [
            120.892451,
            23.564793
          ],
          [
            120.892587,
            23.565665
          ],
          [
            120.892119,
            23.56635
          ],
          [
            120.891322,
            23.566817
          ],
          [
            120.890766,
            23.567522
          ],
          [
            120.890464,
            23.568372
          ],
          [
            120.890601,
            23.5692
          ],
          [
            120.891536,
            23.56923
          ],
          [
            120.892247,
            23.569712
          ],
          [
            120.892485,
            23.570579
          ],
          [
            120.892921,
            23.571344
          ],
          [
            120.893851,
            23.571177
          ],
          [
            120.894776,
            23.571327
          ],
          [
            120.895703,
            23.571597
          ],
          [
            120.896635,
            23.571847
          ],
          [
            120.897598,
            23.571955
          ],
          [
            120.898569,
            23.571966
          ],
          [
            120.899534,
            23.572046
          ],
          [
            120.900289,
            23.571734
          ],
          [
            120.900648,
            23.570911
          ],
          [
            120.901447,
            23.570423
          ],
          [
            120.901626,
            23.569545
          ],
          [
            120.902312,
            23.569104
          ],
          [
            120.903126,
            23.568777
          ],
          [
            120.903399,
            23.567925
          ],
          [
            120.903902,
            23.567159
          ],
          [
            120.904413,
            23.5664
          ],
          [
            120.905301,
            23.566091
          ],
          [
            120.906128,
            23.565742
          ],
          [
            120.906275,
            23.564861
          ],
          [
            120.906924,
            23.56421
          ],
          [
            120.907339,
            23.563408
          ],
          [
            120.90698,
            23.562604
          ],
          [
            120.906506,
            23.561828
          ],
          [
            120.90654,
            23.560935
          ],
          [
            120.906602,
            23.560041
          ],
          [
            120.907101,
            23.559332
          ],
          [
            120.907323,
            23.558518
          ],
          [
            120.907447,
            23.557664
          ],
          [
            120.908302,
            23.557828
          ],
          [
            120.909151,
            23.558227
          ],
          [
            120.910003,
            23.557814
          ],
          [
            120.910727,
            23.557225
          ],
          [
            120.911488,
            23.556772
          ],
          [
            120.912404,
            23.556664
          ],
          [
            120.912832,
            23.555862
          ],
          [
            120.912693,
            23.554998
          ],
          [
            120.912852,
            23.554127
          ],
          [
            120.913096,
            23.553262
          ],
          [
            120.913229,
            23.552404
          ],
          [
            120.914191,
            23.552368
          ],
          [
            120.915033,
            23.552019
          ],
          [
            120.915496,
            23.551238
          ],
          [
            120.915789,
            23.550397
          ],
          [
            120.91509,
            23.549821
          ],
          [
            120.91424,
            23.549389
          ],
          [
            120.91336,
            23.549027
          ],
          [
            120.912574,
            23.548509
          ],
          [
            120.911907,
            23.547902
          ],
          [
            120.912291,
            23.547122
          ],
          [
            120.912654,
            23.546307
          ],
          [
            120.913461,
            23.545826
          ],
          [
            120.914264,
            23.545328
          ],
          [
            120.914935,
            23.544753
          ],
          [
            120.915073,
            23.543867
          ],
          [
            120.915195,
            23.542979
          ],
          [
            120.91448,
            23.542726
          ],
          [
            120.913738,
            23.543297
          ],
          [
            120.912783,
            23.543391
          ],
          [
            120.911837,
            23.543266
          ],
          [
            120.910986,
            23.542841
          ],
          [
            120.910186,
            23.542336
          ],
          [
            120.909272,
            23.542565
          ],
          [
            120.908392,
            23.542582
          ],
          [
            120.908127,
            23.541727
          ],
          [
            120.907851,
            23.540869
          ],
          [
            120.907281,
            23.540179
          ],
          [
            120.906465,
            23.539695
          ],
          [
            120.905794,
            23.539061
          ],
          [
            120.905367,
            23.538333
          ],
          [
            120.906216,
            23.538025
          ],
          [
            120.907177,
            23.538085
          ],
          [
            120.90814,
            23.538008
          ],
          [
            120.908948,
            23.537568
          ],
          [
            120.909908,
            23.537664
          ],
          [
            120.910816,
            23.537348
          ],
          [
            120.91166,
            23.536912
          ],
          [
            120.912454,
            23.536398
          ],
          [
            120.91259,
            23.53556
          ],
          [
            120.913417,
            23.535121
          ],
          [
            120.913867,
            23.534365
          ],
          [
            120.913714,
            23.533506
          ],
          [
            120.914042,
            23.532665
          ],
          [
            120.914421,
            23.531843
          ],
          [
            120.914041,
            23.531159
          ],
          [
            120.913412,
            23.530477
          ],
          [
            120.912717,
            23.529852
          ],
          [
            120.911831,
            23.529735
          ],
          [
            120.910903,
            23.529658
          ],
          [
            120.909992,
            23.52935
          ],
          [
            120.909025,
            23.529298
          ],
          [
            120.908259,
            23.528904
          ],
          [
            120.908857,
            23.528392
          ],
          [
            120.909649,
            23.528003
          ],
          [
            120.910532,
            23.527671
          ],
          [
            120.911386,
            23.52727
          ],
          [
            120.912072,
            23.526648
          ],
          [
            120.912914,
            23.526242
          ],
          [
            120.913631,
            23.525737
          ],
          [
            120.913121,
            23.525019
          ],
          [
            120.913057,
            23.524137
          ],
          [
            120.913424,
            23.523346
          ],
          [
            120.913705,
            23.522574
          ],
          [
            120.91387,
            23.521728
          ],
          [
            120.913824,
            23.520898
          ],
          [
            120.913423,
            23.520094
          ],
          [
            120.912483,
            23.519927
          ],
          [
            120.911529,
            23.52009
          ],
          [
            120.91057,
            23.520199
          ],
          [
            120.909643,
            23.519944
          ],
          [
            120.908731,
            23.519638
          ],
          [
            120.908843,
            23.518893
          ],
          [
            120.909332,
            23.518127
          ],
          [
            120.909183,
            23.517284
          ],
          [
            120.908341,
            23.516934
          ],
          [
            120.907496,
            23.516634
          ],
          [
            120.90794,
            23.515944
          ],
          [
            120.908576,
            23.515331
          ],
          [
            120.909534,
            23.51519
          ],
          [
            120.910489,
            23.515054
          ],
          [
            120.911373,
            23.515404
          ],
          [
            120.911293,
            23.514971
          ],
          [
            120.910334,
            23.514831
          ],
          [
            120.909371,
            23.514725
          ],
          [
            120.908426,
            23.51491
          ],
          [
            120.907531,
            23.515252
          ],
          [
            120.906862,
            23.515898
          ],
          [
            120.90621,
            23.516559
          ],
          [
            120.906821,
            23.517089
          ],
          [
            120.907666,
            23.517521
          ],
          [
            120.908473,
            23.517937
          ],
          [
            120.908015,
            23.518697
          ],
          [
            120.907194,
            23.519009
          ],
          [
            120.906685,
            23.519659
          ],
          [
            120.907275,
            23.520268
          ],
          [
            120.908158,
            23.520531
          ],
          [
            120.909066,
            23.520728
          ],
          [
            120.909834,
            23.521263
          ],
          [
            120.910798,
            23.521322
          ],
          [
            120.911386,
            23.521798
          ],
          [
            120.911351,
            23.522693
          ],
          [
            120.911097,
            23.523557
          ],
          [
            120.911077,
            23.524444
          ],
          [
            120.911137,
            23.525334
          ],
          [
            120.9103,
            23.52575
          ],
          [
            120.909392,
            23.526052
          ],
          [
            120.908427,
            23.525984
          ],
          [
            120.907568,
            23.525624
          ],
          [
            120.906696,
            23.525305
          ],
          [
            120.905824,
            23.524962
          ],
          [
            120.90486,
            23.52494
          ],
          [
            120.904281,
            23.52565
          ],
          [
            120.903843,
            23.526448
          ],
          [
            120.90367,
            23.527322
          ],
          [
            120.903687,
            23.528217
          ],
          [
            120.904248,
            23.528889
          ],
          [
            120.9046,
            23.529693
          ],
          [
            120.9055,
            23.52999
          ],
          [
            120.906234,
            23.530557
          ],
          [
            120.906906,
            23.531204
          ],
          [
            120.907577,
            23.531851
          ],
          [
            120.908258,
            23.53249
          ],
          [
            120.908595,
            23.533307
          ],
          [
            120.908557,
            23.534197
          ],
          [
            120.90772,
            23.534431
          ],
          [
            120.906771,
            23.534473
          ],
          [
            120.905802,
            23.534489
          ],
          [
            120.904852,
            23.534663
          ],
          [
            120.904087,
            23.534183
          ],
          [
            120.903211,
            23.533845
          ],
          [
            120.902314,
            23.53415
          ],
          [
            120.901363,
            23.534313
          ],
          [
            120.900446,
            23.534179
          ],
          [
            120.899821,
            23.534821
          ],
          [
            120.899223,
            23.535183
          ],
          [
            120.899054,
            23.535999
          ],
          [
            120.898909,
            23.536849
          ],
          [
            120.899491,
            23.53755
          ],
          [
            120.899561,
            23.538438
          ],
          [
            120.899699,
            23.539324
          ],
          [
            120.899705,
            23.540213
          ],
          [
            120.899791,
            23.541101
          ],
          [
            120.900043,
            23.541958
          ],
          [
            120.899671,
            23.541826
          ],
          [
            120.899529,
            23.540941
          ],
          [
            120.899255,
            23.540083
          ],
          [
            120.89895,
            23.539233
          ],
          [
            120.898804,
            23.538348
          ],
          [
            120.898107,
            23.537835
          ],
          [
            120.897896,
            23.536972
          ],
          [
            120.897478,
            23.536343
          ],
          [
            120.896575,
            23.536057
          ],
          [
            120.895979,
            23.535355
          ],
          [
            120.895246,
            23.534784
          ],
          [
            120.895703,
            23.534214
          ],
          [
            120.896224,
            23.533467
          ],
          [
            120.896197,
            23.53258
          ],
          [
            120.896363,
            23.531704
          ],
          [
            120.897209,
            23.531932
          ],
          [
            120.898024,
            23.531646
          ],
          [
            120.898796,
            23.53118
          ],
          [
            120.899684,
            23.531518
          ],
          [
            120.90065,
            23.531591
          ],
          [
            120.901389,
            23.532151
          ],
          [
            120.90213,
            23.531765
          ],
          [
            120.901508,
            23.53115
          ],
          [
            120.900626,
            23.530843
          ],
          [
            120.899727,
            23.530754
          ],
          [
            120.898929,
            23.530307
          ],
          [
            120.898544,
            23.529489
          ],
          [
            120.898252,
            23.528636
          ],
          [
            120.89793,
            23.527793
          ],
          [
            120.897607,
            23.52695
          ],
          [
            120.897802,
            23.526079
          ],
          [
            120.898121,
            23.525246
          ],
          [
            120.898365,
            23.524411
          ],
          [
            120.899281,
            23.524283
          ],
          [
            120.899907,
            23.523673
          ],
          [
            120.899915,
            23.522804
          ],
          [
            120.899495,
            23.52202
          ],
          [
            120.89918,
            23.52118
          ],
          [
            120.898695,
            23.520406
          ],
          [
            120.898164,
            23.519661
          ],
          [
            120.897733,
            23.518881
          ],
          [
            120.89742,
            23.518051
          ],
          [
            120.896947,
            23.517291
          ],
          [
            120.897419,
            23.516554
          ],
          [
            120.898148,
            23.51598
          ],
          [
            120.89847,
            23.51537
          ],
          [
            120.899346,
            23.515007
          ],
          [
            120.899144,
            23.514418
          ],
          [
            120.898462,
            23.51422
          ],
          [
            120.898809,
            23.514937
          ],
          [
            120.897871,
            23.515057
          ],
          [
            120.896912,
            23.515116
          ],
          [
            120.896247,
            23.515391
          ],
          [
            120.896759,
            23.516121
          ],
          [
            120.896083,
            23.516715
          ],
          [
            120.895772,
            23.517439
          ],
          [
            120.895974,
            23.518295
          ],
          [
            120.896218,
            23.51916
          ],
          [
            120.896572,
            23.519993
          ],
          [
            120.897164,
            23.520698
          ],
          [
            120.897588,
            23.521498
          ],
          [
            120.897033,
            23.522161
          ],
          [
            120.896167,
            23.522355
          ],
          [
            120.8953,
            23.521984
          ],
          [
            120.89483,
            23.521494
          ],
          [
            120.894909,
            23.520643
          ],
          [
            120.895276,
            23.519828
          ],
          [
            120.895195,
            23.518936
          ],
          [
            120.894501,
            23.518436
          ],
          [
            120.89395,
            23.517837
          ],
          [
            120.893196,
            23.517544
          ],
          [
            120.892557,
            23.516888
          ],
          [
            120.891698,
            23.516488
          ],
          [
            120.890876,
            23.516028
          ],
          [
            120.890581,
            23.515364
          ],
          [
            120.891046,
            23.514585
          ],
          [
            120.89075,
            23.51374
          ],
          [
            120.890637,
            23.512871
          ],
          [
            120.891098,
            23.512086
          ],
          [
            120.891269,
            23.511209
          ],
          [
            120.891602,
            23.510371
          ],
          [
            120.891755,
            23.509487
          ],
          [
            120.891962,
            23.508613
          ],
          [
            120.892138,
            23.507732
          ],
          [
            120.892522,
            23.506913
          ],
          [
            120.892196,
            23.506083
          ],
          [
            120.891749,
            23.505291
          ],
          [
            120.891035,
            23.504851
          ],
          [
            120.890103,
            23.504891
          ],
          [
            120.890144,
            23.504043
          ],
          [
            120.889984,
            23.503176
          ],
          [
            120.890408,
            23.502487
          ],
          [
            120.890994,
            23.501781
          ],
          [
            120.891615,
            23.501104
          ],
          [
            120.892282,
            23.500462
          ],
          [
            120.89225,
            23.499601
          ],
          [
            120.891806,
            23.498833
          ],
          [
            120.89217,
            23.498032
          ],
          [
            120.89238,
            23.497184
          ],
          [
            120.892386,
            23.496291
          ],
          [
            120.892658,
            23.495434
          ],
          [
            120.892859,
            23.494568
          ],
          [
            120.893233,
            23.49375
          ],
          [
            120.893052,
            23.492883
          ],
          [
            120.89269,
            23.492054
          ],
          [
            120.89197,
            23.49146
          ],
          [
            120.891564,
            23.490674
          ],
          [
            120.891415,
            23.490348
          ],
          [
            120.891323,
            23.490026
          ],
          [
            120.891244,
            23.489701
          ],
          [
            120.891166,
            23.489376
          ],
          [
            120.891067,
            23.489056
          ],
          [
            120.890863,
            23.488784
          ],
          [
            120.890625,
            23.488534
          ],
          [
            120.890408,
            23.488269
          ],
          [
            120.890364,
            23.487946
          ],
          [
            120.890373,
            23.487614
          ],
          [
            120.890341,
            23.487502
          ]
        ]
      }
    }
  ]
}
